2020/11/14 06:00
LKPR 140600Z 21007KT 9999 BKN030 09/07 Q1021 NOSIG
