2020/12/05 07:00
LKPR 050700Z 14007KT CAVOK 03/00 Q0997 NOSIG
