2020/11/25 22:30
LKPR 252230Z 17005KT 9999 OVC006 M01/M02 Q1023 NOSIG
