2020/11/30 19:00
LKPR 301900Z 17006KT CAVOK M02/M03 Q1021 NOSIG
