2020/11/14 08:30
LKPR 140830Z 21006KT 9999 SCT048 10/08 Q1022 NOSIG
