2020/12/04 19:00
LKPR 041900Z 09009KT CAVOK M00/M02 Q0995 NOSIG
