2020/12/03 09:30
LKPR 030930Z 17006KT 6000 FEW008 OVC028 M02/M03 Q1009 R24/620195 NOSIG
