2020/12/07 04:00
LKPR 070400Z 15020G30KT 9999 FEW020 07/04 Q0997 NOSIG
