2020/11/12 10:35
LKPR 121035Z 17003KT 130V230 9999 BKN009 OVC025 05/03 Q1022 RMK REG QNH 1019
