2020/11/27 19:00
LKPR 271900Z 34003KT 0900 R24/1100N FZFG VV002 M00/M00 Q1022 BECMG 0700 FZFG
