2020/12/06 14:00
LKPR 061400Z 13016G26KT 9999 FEW030 12/04 Q0999 NOSIG
