2020/11/22 08:00
LKPR 220800Z 20007KT 170V240 9999 SCT036 01/M02 Q1027 NOSIG
