2020/12/06 15:00
LKPR 061500Z 15022G32KT 9999 FEW030 10/04 Q0999 NOSIG
