2020/11/13 09:00
LKPR 130900Z VRB01KT 5000 BR FEW005 BKN007 OVC009 06/06 Q1022 NOSIG
