2020/11/23 11:30
LKPR 231130Z 28009KT 9999 FEW012 SCT037 07/05 Q1026 NOSIG
