2020/11/23 09:00
LKPR 230900Z 24012KT 8000 -RA FEW020 OVC028 05/04 Q1026 NOSIG
