2020/11/23 21:00
LKPR 232100Z 21007KT CAVOK 01/M01 Q1030 NOSIG
