2020/11/22 07:00
LKPR 220700Z 20007KT CAVOK M00/M03 Q1027 NOSIG
