2020/11/24 17:00
LKPR 241700Z 00000KT 0400 R24/0500N FZFG VV001 00/00 Q1025 NOSIG
