2020/11/27 12:30
LKPR 271230Z VRB02KT 1800 BR OVC002 M00/M01 Q1021 NOSIG
