2020/11/07 18:15
LKPR 071815Z 24003KT 210V270 0400 R24/0800U FG VV002 02/02 Q1027 RMK REG QNH 1023
