2020/11/25 21:30
LKPR 252130Z 16004KT 110V200 9999 OVC007 M01/M02 Q1023 NOSIG
