2020/11/20 19:00
LKPR 201900Z 25004KT 9999 FEW032 00/M01 Q1034 NOSIG
