2020/11/21 07:23
LKPR 210723Z 19007KT 2500 1000W R24/P2000N BR FEW001 M03/M03 Q1035 RMK REG QNH 1031
