2020/11/12 16:00
LKPR 121600Z 14002KT 9999 OVC017 06/05 Q1022 NOSIG
