2020/12/05 03:00
LKPR 050300Z 05006KT CAVOK 01/M01 Q0996 NOSIG
