2020/12/02 19:30
LKPR 021930Z 10005KT CAVOK M05/M06 Q1014 NOSIG
