2020/12/03 09:00
LKPR 030900Z 16007KT 6000 FEW008 SCT016 OVC028 M02/M03 Q1009 R24/620195 NOSIG
