2020/11/10 12:00
LKPR 101200Z 15003KT 110V200 9999 SCT007 OVC011 05/03 Q1028 NOSIG
