2020/11/18 14:30
LKPR 181430Z 15005KT CAVOK 11/05 Q1026 NOSIG
