2020/11/13 20:30
LKPR 132030Z 20004KT CAVOK 07/06 Q1021 NOSIG
