2020/11/23 18:00
LKPR 231800Z 24008KT CAVOK 02/M00 Q1029 NOSIG
