2020/11/29 19:30
LKPR 291930Z 32005KT 9999 FEW019 00/M01 Q1024 NOSIG
