2020/11/26 02:45
LKPR 260245Z 18006KT 8000 BKN004 OVC005 M02/M02 Q1023 RMK REG QNH 1019
