2020/12/04 14:30
LKPR 041430Z 11005KT 080V140 CAVOK 01/M01 Q0995 NOSIG
