2020/11/27 21:00
LKPR 272100Z VRB01KT 0900 R24/P2000N FZFG VV002 M00/M00 Q1022 NOSIG
