2020/11/10 06:00
LKPR 100600Z 33002KT 0600 R24/0800D FG VV002 03/02 Q1027 NOSIG
