2020/12/04 19:30
LKPR 041930Z 10007KT CAVOK M01/M01 Q0996 NOSIG
