2020/11/13 08:52
LKPR 130852Z VRB01KT 5000 BR FEW005 BKN007 OVC009 06/06 Q1022 RMK REG QNH 1020
