2020/12/05 19:00
LKPR 051900Z 07007KT CAVOK 04/02 Q1002 NOSIG
