2020/11/10 16:30
LKPR 101630Z 17004KT 9999 OVC009 04/03 Q1028 NOSIG
