2020/12/04 07:00
LKPR 040700Z VRB02KT 8000 SCT012 BKN015 M01/M01 Q0996 R88/CLRD// NOSIG
