2020/12/06 13:30
LKPR 061330Z 04003KT 020V100 9999 FEW030 10/05 Q0999 NOSIG
