2020/12/03 14:00
LKPR 031400Z 18005KT 5000 BR OVC024 M01/M03 Q1006 R24/29//95 NOSIG
