2020/11/11 16:00
LKPR 111600Z 14006KT 9999 OVC017 05/02 Q1026 NOSIG
