2020/11/26 19:00
LKPR 261900Z 22004KT 2500 BR OVC002 M01/M01 Q1023 TEMPO 1500 BR
