2020/11/24 02:30
LKPR 240230Z 21007KT CAVOK M01/M02 Q1029 NOSIG
