2020/11/14 07:00
LKPR 140700Z 21004KT 9999 FEW030 BKN042 09/07 Q1022 NOSIG
