2020/11/07 12:00
LKPR 071200Z 02003KT 360V060 0200 R24/0400N FG VV002 02/02 Q1029 NOSIG
