2020/11/08 02:00
LKPR 080200Z 23004KT 0600 R24/0800N -DZ FG VV002 02/01 Q1026 NOSIG
