2020/11/17 06:31
LKPR 170631Z 23013KT 9999 -RA FEW035 BKN043 08/06 Q1025 RMK REG QNH 1023
