2020/12/03 08:00
LKPR 030800Z 14005KT 5000 BR BKN007 BKN017 M02/M03 Q1009 R24/620195 NOSIG
