2020/11/11 02:11
LKPR 110211Z 20003KT 150V270 8000 -DZ FEW003 SCT006 OVC008 04/03 Q1028 RMK REG QNH 1025
