2020/11/25 12:00
LKPR 251200Z 19004KT 160V240 5000 BR BKN005 OVC006 M01/M01 Q1023 NOSIG
