2020/11/09 16:00
LKPR 091600Z 21003KT 7000 BKN003 OVC005 02/02 Q1027 NOSIG
