2020/12/01 19:30
LKPR 011930Z 11003KT 9999 FEW023 M03/M05 Q1020 NOSIG
