2020/12/06 09:00
LKPR 060900Z 09004KT CAVOK 06/04 Q1000 NOSIG
