2020/11/19 06:30
LKPR 190630Z 16009KT 9000 NSC 03/02 Q1019 NOSIG
