2020/11/24 20:50
LKPR 242050Z 06002KT 0700 R24/0800U FZFG VV001 M00/M00 Q1024 RMK REG QNH 1020
