2020/11/29 11:45
LKPR 291145Z 33007KT 300V360 9999 FEW015 BKN020 03/M01 Q1023 RMK REG QNH 1018
