2020/11/09 17:00
LKPR 091700Z 19003KT 8000 OVC004 02/02 Q1028 NOSIG
