2020/12/03 22:52
LKPR 032252Z 13004KT 9000 BKN011 M03/M04 Q1000 R24/29//95 RMK REG QNH 0994
