2020/12/08 05:00
LKPR 080500Z 11005KT CAVOK M00/M01 Q1004 NOSIG
