2020/11/18 08:30
LKPR 180830Z 21005KT 170V230 9999 FEW039 08/05 Q1028 NOSIG
