2020/11/08 04:12
LKPR 080412Z 24005KT 0700 R24/0800N FZFG VV002 M00/M00 Q1026 RMK REG QNH 1021
