2020/11/30 07:30
LKPR 300730Z 22005KT 9999 SCT036 BKN045 M02/M03 Q1026 NOSIG
