2020/11/27 10:30
LKPR 271030Z 22004KT 0300 R24/0650N FZFG VV002 M01/M01 Q1022 BECMG 0550 FZFG
