2020/11/25 10:30
LKPR 251030Z 20003KT 150V240 4000 BR FEW003 OVC005 M01/M01 Q1023 NOSIG
