2020/12/08 04:30
LKPR 080430Z 11005KT CAVOK M00/M01 Q1004 NOSIG
