2020/12/01 03:00
LKPR 010300Z 15005KT CAVOK M03/M04 Q1017 NOSIG
