2020/11/07 22:00
LKPR 072200Z 21005KT 160V230 0600 R24/1100D FG VV002 02/02 Q1026 NOSIG
