2020/12/01 07:00
LKPR 010700Z 14005KT 9999 BKN037 M02/M04 Q1016 NOSIG
