2020/11/29 11:21
LKPR 291121Z 35008KT 310V020 9999 SCT015 02/M01 Q1023 RMK REG QNH 1018
