2020/12/04 03:30
LKPR 040330Z 11005KT 090V150 9000 OVC009 M02/M03 Q0996 R24/29//95 NOSIG
