2020/11/17 15:31
LKPR 171531Z 23011KT 9999 -RA FEW026 09/05 Q1027 RMK REG QNH 1024
