2020/12/03 22:00
LKPR 032200Z 10003KT 070V160 9000 SCT010 M04/M05 Q1001 R24/29//95 BECMG BKN007
