2020/11/13 10:00
LKPR 131000Z 16004KT 130V220 6000 FEW007 BKN021 08/06 Q1022 NOSIG
