2020/11/28 03:00
LKPR 280300Z 01004KT 0550 R24/0650N FZFG VV002 M01/M01 Q1021 NOSIG
