2020/11/25 07:30
LKPR 250730Z 18006KT 3300 BR OVC003 M01/M01 Q1023 NOSIG
