2020/11/08 19:30
LKPR 081930Z 02003KT 350V080 0400 R24/0450N FG VV001 02/02 Q1026 NOSIG
