2020/11/27 16:19
LKPR 271619Z 28003KT 1400 R24/1500D BR OVC002 M00/M00 Q1021 RMK REG QNH 1018
