2020/11/14 12:30
LKPR 141230Z 23004KT CAVOK 15/09 Q1021 NOSIG
