2020/12/04 09:00
LKPR 040900Z 10004KT 070V140 9999 BKN016 01/M01 Q0996 NOSIG
