2020/12/06 08:30
LKPR 060830Z 12005KT 090V150 CAVOK 07/04 Q1001 NOSIG
