2020/11/29 01:00
LKPR 290100Z 31005KT 9999 OVC034 00/M02 Q1023 NOSIG
