2020/11/08 21:00
LKPR 082100Z 07003KT 030V120 0400 R24/0500N FG VV001 02/02 Q1026 NOSIG
