2020/11/24 01:00
LKPR 240100Z 21009KT CAVOK M00/M01 Q1029 NOSIG
