2020/11/11 17:00
LKPR 111700Z 14004KT 9999 OVC017 05/02 Q1026 NOSIG
