2020/11/26 07:30
LKPR 260730Z 18004KT 150V220 5000 BR OVC005 M02/M03 Q1024 NOSIG
