2020/11/25 04:36
LKPR 250436Z 16004KT 130V190 1300 R24/1800N -FZDZ BR SCT001 OVC002 M01/M01 Q1023 RMK REG QNH 1019
