2020/11/08 07:30
LKPR 080730Z 23004KT 0300 R24/0500D FZFG VV002 M00/M00 Q1026 NOSIG
