2020/11/25 16:00
LKPR 251600Z 16005KT 9000 OVC009 M00/M02 Q1023 NOSIG
