2020/11/07 10:30
LKPR 071030Z 02003KT 310V060 0200 R24/0275N FG VV002 02/02 Q1030 BECMG 0500 FG OVC002
