2020/11/12 07:00
LKPR 120700Z 21005KT 7000 -DZ SCT006 BKN009 OVC015 03/02 Q1023 NOSIG
