2020/11/20 08:00
LKPR 200800Z 27006KT CAVOK 03/M01 Q1029 NOSIG
