2020/12/06 02:30
LKPR 060230Z 13005KT CAVOK 07/03 Q1001 NOSIG
