2020/12/05 23:30
LKPR 052330Z 03004KT 360V110 CAVOK 06/03 Q1001 NOSIG
