2020/11/11 13:00
LKPR 111300Z 19003KT 150V220 9999 OVC014 05/02 Q1026 NOSIG
