2020/11/07 11:00
LKPR 071100Z 06003KT 010V100 0200 R24/0350U FG VV001 02/02 Q1029 BECMG 0500 FG OVC002
