2020/11/19 13:00
LKPR 191300Z 23014KT 9999 FEW023 BKN040 10/06 Q1018 NOSIG
