2020/11/19 04:00
LKPR 190400Z VRB01KT CAVOK 03/01 Q1020 NOSIG
