2020/11/27 11:21
LKPR 271121Z 19004KT 150V250 0700 R24/P2000N FZFG OVC002 M01/M01 Q1022 RMK REG QNH 1019
