2020/11/12 05:00
LKPR 120500Z VRB02KT 6000 BKN002 OVC003 03/03 Q1022 NOSIG
