2020/11/29 22:00
LKPR 292200Z 28006KT CAVOK 00/M02 Q1024 NOSIG
