2020/11/15 11:00
LKPR 151100Z 15006KT 9999 OVC007 05/05 Q1019 NOSIG
