2020/12/07 18:30
LKPR 071830Z 07003KT 9999 FEW017 BKN022 04/02 Q1004 NOSIG
