2020/11/30 03:00
LKPR 300300Z 22005KT CAVOK M02/M03 Q1024 NOSIG
