2020/11/06 19:30
LKPR 061930Z VRB02KT CAVOK 04/01 Q1033 NOSIG
