2020/11/14 09:00
LKPR 140900Z 22004KT CAVOK 10/08 Q1022 NOSIG
