2020/11/26 06:00
LKPR 260600Z 20005KT 170V230 8000 SCT004 OVC005 M02/M03 Q1023 NOSIG
