2020/11/13 14:30
LKPR 131430Z VRB01KT CAVOK 10/07 Q1021 NOSIG
