2020/11/06 21:00
LKPR 062100Z VRB02KT CAVOK 02/01 Q1033 NOSIG
