2020/11/09 19:00
LKPR 091900Z 34003KT 310V010 4500 -DZ BR FEW002 OVC004 03/02 Q1028 TEMPO 2500 -DZ BR BKN003
