2020/11/11 10:30
LKPR 111030Z 20004KT 9999 OVC013 05/02 Q1027 NOSIG
