2020/11/26 08:00
LKPR 260800Z 19004KT 160V240 5000 BR OVC004 M02/M03 Q1024 NOSIG
