2020/12/02 05:30
LKPR 020530Z 12005KT 9999 FEW018 M04/M06 Q1020 NOSIG
