2020/11/07 02:30
LKPR 070230Z 01002KT 0500 R24/0500D FZFG BKN001 M02/M03 Q1031 NOSIG
