2020/11/23 03:55
LKPR 230355Z 23009KT 9999 -RA SCT038 BKN048 05/03 Q1024 RMK REG QNH 1023
