2020/11/07 02:00
LKPR 070200Z 00000KT 0500 R24/1500N FZFG SCT001 M02/M02 Q1032 NOSIG
