2020/12/02 22:00
LKPR 022200Z 12006KT 9000 BKN021 M03/M05 Q1013 BECMG BKN015
