2020/11/10 17:00
LKPR 101700Z 18005KT 9999 OVC008 04/03 Q1028 NOSIG
