2020/11/17 16:00
LKPR 171600Z 23011KT 9999 BKN038 09/05 Q1027 NOSIG
