2020/11/10 08:42
LKPR 100842Z 00000KT 1500 BR SCT001 BKN002 OVC009 03/03 Q1028 RMK REG QNH 1024
