2020/11/12 14:30
LKPR 121430Z 19003KT 130V230 9999 FEW011 BKN017 06/05 Q1021 NOSIG
