2020/12/03 23:00
LKPR 032300Z 12004KT 9000 BKN011 M03/M05 Q1000 R24/29//95 BECMG OVC007
