2020/12/04 23:30
LKPR 042330Z 12011KT CAVOK 01/M02 Q0995 NOSIG
