2020/11/21 07:30
LKPR 210730Z 19007KT 2500 1000W R24/P2000N BR BCFG FEW001 M03/M03 Q1035 TEMPO 1200 BR
