2020/11/29 12:30
LKPR 291230Z 34007KT 9999 BKN020 03/M01 Q1023 NOSIG
