2020/12/05 00:30
LKPR 050030Z 10011KT CAVOK 01/M01 Q0995 NOSIG
