2020/11/12 06:33
LKPR 120633Z 19004KT 160V220 4000 -DZ BR FEW003 SCT005 OVC011 03/03 Q1023 RMK REG QNH 1017
