2020/11/26 04:00
LKPR 260400Z 23006KT 8000 OVC004 M02/M02 Q1023 NOSIG
