2020/11/18 00:30
LKPR 180030Z 24007KT 9999 BKN049 08/05 Q1028 NOSIG
