2020/11/22 05:00
LKPR 220500Z 19008KT CAVOK M01/M03 Q1028 NOSIG
