2020/12/08 05:30
LKPR 080530Z 13004KT CAVOK M00/M01 Q1004 NOSIG
