2020/11/12 16:30
LKPR 121630Z 15003KT 9999 OVC018 06/05 Q1022 NOSIG
