2020/11/20 12:30
LKPR 201230Z 31012KT 9999 FEW028 05/M01 Q1030 NOSIG
