2020/11/09 09:30
LKPR 090930Z 13003KT 3000 BR FEW002 OVC003 02/02 Q1028 BECMG OVC005
