2020/12/04 13:30
LKPR 041330Z 09008KT 9999 FEW019 03/M01 Q0995 NOSIG
