2020/11/13 10:41
LKPR 131041Z 23007KT 9999 BKN015 09/07 Q1022 RMK REG QNH 1019
