2020/11/08 08:54
LKPR 080854Z 16003KT 080V220 0350 R24/01000 FZFG VV002 00/00 Q1027 RMK REG QNH 1021
