2020/11/11 09:30
LKPR 110930Z 21003KT 160V240 9999 OVC013 04/02 Q1028 NOSIG
