2020/11/11 11:30
LKPR 111130Z 16003KT 100V190 9999 OVC014 05/02 Q1027 BECMG BKN016
