2020/11/08 02:30
LKPR 080230Z 24006KT 0700 R24/0900U -DZ FG VV002 01/01 Q1026 NOSIG
