2020/11/10 03:00
LKPR 100300Z 33004KT 0800 R24/1400U FG VV002 02/02 Q1027 NOSIG
