2020/12/06 23:30
LKPR 062330Z 15022G33KT CAVOK 08/04 Q0998 NOSIG
