2020/12/05 18:30
LKPR 051830Z 06008KT CAVOK 04/02 Q1002 NOSIG
