2020/11/13 19:30
LKPR 131930Z 21003KT 180V260 9000 MIFG NSC 06/06 Q1021 NOSIG
