2020/12/03 08:30
LKPR 030830Z 15005KT 5000 -SN BR SCT007 BKN015 OVC030 M02/M03 Q1009 R24/620195 NOSIG
