2020/11/23 03:00
LKPR 230300Z 23006KT 9999 BKN045 04/03 Q1024 NOSIG
