2020/11/23 12:30
LKPR 231230Z 30009KT 9999 FEW020 BKN046 07/03 Q1026 NOSIG
