2020/11/28 07:00
LKPR 280700Z 35005KT 0550 R24/0750N -FZDZ FZFG VV002 M01/M01 Q1021 NOSIG
