2020/11/21 18:00
LKPR 211800Z 18006KT CAVOK 00/M03 Q1031 NOSIG
