2020/12/02 18:30
LKPR 021830Z 10006KT CAVOK M04/M06 Q1014 NOSIG
