2020/12/06 16:00
LKPR 061600Z 16016KT CAVOK 09/05 Q0999 NOSIG
