2020/11/10 09:30
LKPR 100930Z VRB01KT 2500 BR BKN002 OVC010 04/03 Q1029 BECMG 3000 BR SCT002 OVC010
