2020/12/01 20:48
LKPR 012048Z 13003KT 9000 BKN010 M04/M06 Q1020 RMK REG QNH 1015
