2020/12/05 17:00
LKPR 051700Z 05006KT CAVOK 04/02 Q1002 NOSIG
