2020/11/24 03:00
LKPR 240300Z 21007KT CAVOK M01/M02 Q1029 NOSIG
