2020/12/03 05:00
LKPR 030500Z 15004KT 3300 SN BR SCT007 OVC022 M02/M03 Q1010 R24///99// R30///99// TEMPO 2500 SN BR 