2020/11/13 17:00
LKPR 131700Z 13005KT CAVOK 07/06 Q1021 NOSIG
