2020/11/08 07:00
LKPR 080700Z 22005KT 180V250 0350 R24/0550N FZFG VV002 M00/M00 Q1027 NOSIG
