2020/12/06 11:00
LKPR 061100Z 14008KT CAVOK 11/04 Q1000 NOSIG
