2020/11/12 03:30
LKPR 120330Z 15003KT 6000 -DZ SCT003 BKN005 OVC015 03/03 Q1023 TEMPO 3000 BR BKN004
