2020/12/05 08:30
LKPR 050830Z 03004KT CAVOK 05/01 Q0998 NOSIG
