2020/11/13 10:16
LKPR 131016Z 19004KT 160V230 9000 FEW011 SCT013 BKN018 08/07 Q1022 RMK REG QNH 1019
