2020/12/04 18:00
LKPR 041800Z 10005KT CAVOK 01/M02 Q0995 NOSIG
