2020/11/22 13:30
LKPR 221330Z 22010KT 9999 BKN022 06/M01 Q1025 NOSIG
