2020/11/12 20:07
LKPR 122007Z 19005KT 9999 -RA BKN015 OVC019 07/05 Q1022 RMK REG QNH 1020
