2020/11/30 03:30
LKPR 300330Z 23004KT 9999 FEW023 M02/M04 Q1025 NOSIG
