2020/11/26 13:00
LKPR 261300Z 22003KT 5000 BR OVC004 M01/M02 Q1023 NOSIG
