2020/11/21 06:00
LKPR 210600Z 22007KT CAVOK M02/M03 Q1035 NOSIG
