2020/11/12 14:06
LKPR 121406Z 19003KT 150V230 9999 SCT013 BKN017 06/05 Q1022 RMK REG QNH 1019
