2020/11/09 06:30
LKPR 090630Z 13003KT 080V170 0700 R24/0800U FG VV002 02/02 Q1027 TEMPO 0500 FG
