2020/11/13 14:00
LKPR 131400Z VRB01KT CAVOK 10/07 Q1021 NOSIG
