2020/12/05 06:00
LKPR 050600Z 12004KT CAVOK 02/M00 Q0996 NOSIG
