2020/12/01 22:00
LKPR 012200Z 08003KT 9000 BKN014 M02/M04 Q1020 NOSIG
