2020/12/04 02:00
LKPR 040200Z 10004KT 8000 OVC009 M02/M03 Q0997 R24/29//95 NOSIG
