2020/11/22 01:00
LKPR 220100Z 18005KT CAVOK M01/M03 Q1029 NOSIG
