2020/12/08 09:30
LKPR 080930Z 11007KT CAVOK 04/01 Q1005 NOSIG
