2020/11/27 02:00
LKPR 270200Z 21004KT 0600 R24/0800N FZFG SCT001 OVC002 M01/M01 Q1022 NOSIG
