2020/12/04 07:30
LKPR 040730Z 07002KT 9000 FEW012 BKN016 M01/M01 Q0996 NOSIG
