2020/11/20 05:30
LKPR 200530Z 30006KT 9999 FEW043 02/M01 Q1028 NOSIG
