2020/11/28 22:00
LKPR 282200Z VRB01KT 9999 OVC032 00/M02 Q1023 NOSIG
