2020/11/14 12:00
LKPR 141200Z 22008KT CAVOK 14/09 Q1021 NOSIG
