2020/11/07 09:00
LKPR 070900Z 03003KT 0200 R24/0350N FG VV001 01/01 Q1031 BECMG 0600 FG OVC001
