2020/11/15 05:00
LKPR 150500Z 13004KT 5000 BR BKN002 02/02 Q1019 NOSIG
