2020/11/07 14:00
LKPR 071400Z VRB02KT 0300 R24/0500U FG VV002 03/03 Q1028 NOSIG
