2020/11/14 19:30
LKPR 141930Z VRB01KT 0400 R24/0500N PRFG FEW001 06/06 Q1020 TEMPO BKN002
