2020/11/07 14:30
LKPR 071430Z VRB02KT 0250 R24/0375N FG VV001 03/03 Q1027 NOSIG
