2020/12/05 05:30
LKPR 050530Z 08002KT CAVOK 01/M00 Q0996 NOSIG
