2020/11/21 09:30
LKPR 210930Z 20006KT CAVOK M00/M01 Q1035 NOSIG
