2020/11/26 15:35
LKPR 261535Z 30003KT 260V320 5000 BR BKN003 OVC004 M01/M01 Q1023 RMK REG QNH 1019
