2020/12/03 05:30
LKPR 030530Z 13005KT 3000 SN BR SCT006 OVC020 M02/M03 Q1009 R24/650295 R30///99// TEMPO 2500 SN BR BKN006
