2020/12/07 12:30
LKPR 071230Z 29004KT 9999 OVC013 04/02 Q1002 NOSIG
