2020/11/11 15:00
LKPR 111500Z 13003KT 9999 OVC015 05/03 Q1026 NOSIG
