2020/12/02 17:00
LKPR 021700Z 09007KT CAVOK M04/M06 Q1014 NOSIG
