2020/11/14 21:18
LKPR 142118Z 00000KT 0250 R24/0275D FG VV001 04/04 Q1020 RMK REG QNH 1017
