2020/11/20 18:30
LKPR 201830Z 28004KT 9999 FEW030 SCT049 01/M00 Q1033 NOSIG
