2020/11/09 05:00
LKPR 090500Z 14003KT 100V170 1500 BR OVC002 02/02 Q1026 TEMPO 0700 FG VV001
