2020/11/18 12:00
LKPR 181200Z 17004KT CAVOK 12/05 Q1027 NOSIG
