2020/12/01 15:00
LKPR 011500Z 05005KT 9999 BKN026 00/M02 Q1017 NOSIG
