2020/11/29 19:00
LKPR 291900Z 32007KT 9999 SCT018 01/M01 Q1024 NOSIG
