2020/11/13 22:00
LKPR 132200Z 21008KT CAVOK 08/06 Q1021 NOSIG
