2020/11/22 04:00
LKPR 220400Z 21006KT CAVOK M02/M04 Q1028 NOSIG
