2020/11/18 11:00
LKPR 181100Z 20006KT 160V220 9999 FEW040 11/05 Q1027 NOSIG
