2020/11/18 19:00
LKPR 181900Z 19005KT CAVOK 06/04 Q1024 NOSIG
