2020/12/08 02:30
LKPR 080230Z VRB03KT 9999 FEW020 01/00 Q1003 NOSIG
