2020/11/11 02:30
LKPR 110230Z VRB02KT 9000 -DZ SCT005 BKN008 OVC010 04/03 Q1028 NOSIG
