2020/12/06 14:30
LKPR 061430Z 15021G31KT 9999 FEW030 11/05 Q0999 NOSIG
