2020/12/01 04:00
LKPR 010400Z 16005KT CAVOK M02/M04 Q1017 NOSIG
