2020/11/24 00:00
LKPR 240000Z 22007KT CAVOK M01/M02 Q1030 NOSIG
