2020/11/26 14:30
LKPR 261430Z VRB02KT 4500 BR OVC004 M01/M01 Q1022 NOSIG
