2020/11/18 18:30
LKPR 181830Z 19006KT CAVOK 05/03 Q1024 NOSIG
