2020/11/07 03:30
LKPR 070330Z VRB02KT 0300 R24/0375N FZFG VV001 M01/M02 Q1031 NOSIG
