2020/11/29 02:00
LKPR 290200Z 32004KT 9999 FEW010 SCT023 OVC030 00/M01 Q1023 NOSIG
