2020/12/02 04:00
LKPR 020400Z 10004KT 9999 FEW021 M05/M06 Q1020 NOSIG
