2020/11/09 14:30
LKPR 091430Z VRB02KT 3400 BR OVC003 02/02 Q1027 NOSIG
