2020/11/20 15:00
LKPR 201500Z 31007KT 9999 SCT032 BKN040 04/M01 Q1031 NOSIG
