2020/11/17 10:00
LKPR 171000Z 24013KT 9999 FEW021 SCT046 10/05 Q1027 NOSIG
