2020/11/23 03:30
LKPR 230330Z 23005KT 9999 BKN045 04/03 Q1024 NOSIG
