2020/11/24 22:14
LKPR 242214Z 18004KT 140V210 1800 BR OVC001 M00/M00 Q1024 RMK REG QNH 1020
