2020/11/07 04:00
LKPR 070400Z VRB01KT 0300 R24/0325N FZFG VV001 M01/M02 Q1031 NOSIG
