2020/11/12 17:30
LKPR 121730Z 19005KT 9999 OVC016 06/05 Q1022 NOSIG
