2020/11/09 11:30
LKPR 091130Z 12005KT 4800 BR BKN003 OVC005 03/03 Q1027 NOSIG
