2020/11/11 23:00
LKPR 112300Z 13007KT 9999 BKN012 OVC016 04/02 Q1025 NOSIG
