2020/11/08 22:00
LKPR 082200Z VRB02KT 0400 R24/0550N FG VV001 02/02 Q1027 NOSIG
