2020/11/18 15:30
LKPR 181530Z 14005KT CAVOK 10/05 Q1025 NOSIG
