2020/11/24 10:00
LKPR 241000Z 15003KT 090V180 0200 R24/0400N FZFG VV001 M01/M01 Q1028 NOSIG
