2020/11/29 05:00
LKPR 290500Z 32005KT 9999 BKN035 M01/M02 Q1023 NOSIG
