2020/11/17 23:30
LKPR 172330Z 24011KT 9999 FEW041 BKN048 08/05 Q1028 NOSIG
