2020/12/01 21:00
LKPR 012100Z 13003KT 9000 BKN011 M04/M05 Q1020 NOSIG
