2020/11/13 22:30
LKPR 132230Z 26004KT 220V300 CAVOK 08/06 Q1021 NOSIG
