2020/11/28 07:18
LKPR 280718Z 35004KT 0550 R24/0900U -FZDZ FZFG VV002 M01/M01 Q1022 RMK REG QNH 1018
