2020/11/21 05:30
LKPR 210530Z 21008KT CAVOK M02/M03 Q1035 NOSIG
