2020/11/25 15:00
LKPR 251500Z 19005KT 6000 OVC008 M00/M01 Q1023 NOSIG
