2020/12/04 12:00
LKPR 041200Z 13004KT 090V160 9999 BKN018 02/M01 Q0995 TEMPO SCT020
