2020/11/13 04:00
LKPR 130400Z 22005KT 7000 FEW009 03/03 Q1022 NOSIG
