2020/11/26 03:30
LKPR 260330Z 21005KT 170V240 8000 BKN004 OVC005 M01/M02 Q1023 NOSIG
