2020/11/28 02:30
LKPR 280230Z 36003KT 0550 R24/0600N FZFG VV001 M01/M01 Q1021 NOSIG
