2020/11/08 23:00
LKPR 082300Z 08003KT 0450 R24/0600N FG VV002 02/02 Q1027 NOSIG
