2020/11/12 03:00
LKPR 120300Z VRB02KT 6000 -DZ FEW003 BKN007 OVC017 03/02 Q1023 TEMPO 4000 BR BKN005
