2020/12/05 11:30
LKPR 051130Z 11006KT CAVOK 07/03 Q1001 NOSIG
