2020/11/09 23:30
LKPR 092330Z 01003KT 1600 BR SCT001 OVC002 03/03 Q1028 BECMG 0900 FG OVC001
