2020/11/13 21:30
LKPR 132130Z 21009KT CAVOK 08/06 Q1021 NOSIG
