2020/12/06 19:00
LKPR 061900Z 14015G25KT 9999 SCT021 08/04 Q1000 NOSIG
