2020/11/17 19:00
LKPR 171900Z 23010KT CAVOK 09/05 Q1027 NOSIG
