2020/12/01 15:30
LKPR 011530Z 07005KT 9000 SCT025 M01/M03 Q1017 NOSIG
