2020/11/06 20:30
LKPR 062030Z 15006KT CAVOK 01/M00 Q1033 NOSIG
