2020/11/07 11:30
LKPR 071130Z 05003KT 350V100 0200 R24/0325U FG VV002 02/02 Q1029 NOSIG
