2020/12/07 20:00
LKPR 072000Z 11006KT 9999 BKN025 05/02 Q1004 NOSIG
