2020/11/12 20:30
LKPR 122030Z 19006KT 9999 -RA SCT015 BKN021 OVC030 07/05 Q1022 TEMPO BKN012
