2020/11/07 20:30
LKPR 072030Z 17002KT 0500 R24/0700N FG VV002 02/02 Q1027 NOSIG
