2020/12/04 02:30
LKPR 040230Z 10003KT 070V130 8000 OVC010 M02/M03 Q0997 R24/29//95 NOSIG
