2020/11/24 04:00
LKPR 240400Z 19007KT CAVOK M01/M02 Q1028 BECMG 3000 BR SCT002
