2020/12/03 06:05
LKPR 030605Z 12004KT 090V150 3500 -SN BR SCT004 OVC022 M02/M03 Q1009 R24/650295 R30///99// RMK REG QNH 1004
