2020/12/05 21:30
LKPR 052130Z VRB02KT 8000 NSC 01/01 Q1001 NOSIG
