2020/11/21 04:30
LKPR 210430Z 21007KT CAVOK M02/M03 Q1035 NOSIG
