2020/11/26 15:00
LKPR 261500Z 24003KT 200V260 4500 BR OVC004 M01/M01 Q1023 NOSIG
