2020/11/14 10:00
LKPR 141000Z 17004KT 120V210 CAVOK 12/09 Q1022 NOSIG
