2020/11/28 00:30
LKPR 280030Z VRB02KT 0700 FZFG VV002 M01/M01 Q1021 NOSIG
