2020/12/07 18:00
LKPR 071800Z 03004KT 9999 BKN022 04/01 Q1004 NOSIG
