2020/11/13 12:30
LKPR 131230Z 21005KT 9999 FEW015 BKN043 10/07 Q1021 NOSIG
