2020/11/11 06:00
LKPR 110600Z 23005KT 180V250 9999 OVC012 04/02 Q1028 NOSIG
