2020/11/21 17:30
LKPR 211730Z 18005KT CAVOK 01/M03 Q1031 NOSIG
