2020/11/07 19:00
LKPR 071900Z VRB02KT 0400 R24/0600N FG VV002 02/02 Q1027 NOSIG
