2020/11/24 11:19
LKPR 241119Z VRB02KT 1600 BR BKN002 01/01 Q1027 RMK REG QNH 1023
