2020/11/24 18:00
LKPR 241800Z 29003KT 0400 R24/0450N FZFG VV001 00/M00 Q1025 NOSIG
