2020/11/16 13:30
LKPR 161330Z 25016KT 9999 SCT030 10/05 Q1017 NOSIG
