2020/11/14 02:30
LKPR 140230Z 21006KT 9999 SCT048 08/06 Q1021 NOSIG
