2020/11/10 15:40
LKPR 101540Z 18004KT 150V210 9999 OVC009 04/03 Q1028 RMK REG QNH 1025
