2020/12/05 01:30
LKPR 050130Z 11008KT CAVOK 01/M01 Q0995 NOSIG
