2020/11/10 12:48
LKPR 101248Z 14004KT 080V200 9999 FEW005 OVC010 05/03 Q1028 RMK REG QNH 1025
