2020/11/21 11:00
LKPR 211100Z 20008KT CAVOK 03/M00 Q1034 NOSIG
