2020/11/13 08:22
LKPR 130822Z 00000KT 3500 BR FEW003 SCT004 BKN011 06/05 Q1022 RMK REG QNH 1020
