2020/11/24 13:48
LKPR 241348Z 13004KT 4000 1500SE BR BKN002 01/00 Q1026 RMK REG QNH 1022
