2020/11/08 05:00
LKPR 080500Z 22006KT 0600 R24/0800N FZFG VV002 M00/M01 Q1026 TEMPO 0400 FZFG VV001
