2020/11/12 10:49
LKPR 121049Z 16004KT 130V190 9999 BKN010 OVC025 05/03 Q1022 RMK REG QNH 1019
