2020/11/16 22:00
LKPR 162200Z 23012KT 9999 BKN039 08/06 Q1022 NOSIG
