2020/11/14 22:19
LKPR 142219Z VRB01KT 0400 R24/0900U FG VV001 03/03 Q1020 RMK REG QNH 1017
