2020/11/16 11:30
LKPR 161130Z 24016KT 9999 FEW020 SCT042 10/06 Q1016 NOSIG
