2020/11/07 09:30
LKPR 070930Z 02003KT 0200 R24/0350N FG VV001 01/01 Q1030 BECMG 0600 FG OVC001
