2020/12/03 23:30
LKPR 032330Z 08003KT 050V110 9000 OVC010 M03/M04 Q0999 R24/29//95 TEMPO OVC008
