2020/12/05 12:30
LKPR 051230Z 15009KT CAVOK 08/03 Q1002 NOSIG
