2020/11/21 07:41
LKPR 210741Z 21008KT 6000 FEW001 M02/M03 Q1035 RMK REG QNH 1031
