2020/11/19 11:00
LKPR 191100Z 24009KT 9999 BKN026 10/05 Q1018 TEMPO 27015G30KT BKN016
