2020/11/27 12:00
LKPR 271200Z VRB02KT 1100 R24/P2000N BR OVC002 M01/M01 Q1022 BECMG 1700 BR
