2020/11/08 13:12
LKPR 081312Z VRB02KT 0450 R24/0600N FG VV002 02/02 Q1026 RMK REG QNH 1023
