2020/12/06 22:30
LKPR 062230Z 15025G35KT 9999 FEW023 09/04 Q0998 NOSIG
