2020/11/09 23:00
LKPR 092300Z 02003KT 1800 BR SCT001 OVC002 03/03 Q1028 BECMG 1200 BR OVC001
