2020/11/07 19:30
LKPR 071930Z 21003KT 130V250 0400 R24/0600N FG VV002 02/02 Q1027 NOSIG
