2020/11/25 10:00
LKPR 251000Z 14006KT 3600 BR SCT004 OVC005 M01/M01 Q1023 NOSIG
