2020/11/11 10:00
LKPR 111000Z 19003KT 150V240 9999 OVC013 05/02 Q1027 NOSIG
