2020/11/26 14:00
LKPR 261400Z 20003KT 160V240 4000 BR OVC004 M01/M01 Q1023 NOSIG
