2020/11/11 03:30
LKPR 110330Z 22003KT 9000 -DZ FEW004 SCT006 OVC009 04/03 Q1028 NOSIG
