2020/11/10 20:00
LKPR 102000Z 17004KT 9999 OVC006 04/03 Q1029 NOSIG
