2020/11/19 06:00
LKPR 190600Z 16009KT CAVOK 03/02 Q1019 NOSIG
