2020/11/08 04:30
LKPR 080430Z 23006KT 0700 R24/0900N FZFG VV002 M00/M00 Q1026 NOSIG
