2020/11/25 06:00
LKPR 250600Z 16004KT 130V190 3500 BR OVC002 M01/M01 Q1022 TEMPO 1200 BR BKN001
