2020/11/23 07:22
LKPR 230722Z 24013KT 8000 -RA SCT016 BKN022 OVC040 05/03 Q1025 RMK REG QNH 1023
