2020/11/07 15:30
LKPR 071530Z VRB01KT 0250 R24/0400N FG VV001 03/03 Q1027 NOSIG
