2020/12/05 04:30
LKPR 050430Z 12005KT CAVOK 01/M00 Q0995 NOSIG
