2020/12/06 12:00
LKPR 061200Z 16011KT 110V220 CAVOK 12/05 Q0999 NOSIG
