2020/11/17 06:00
LKPR 170600Z 23011KT 9999 BKN043 08/06 Q1025 NOSIG
