2020/12/03 15:30
LKPR 031530Z 20006KT 9000 OVC026 M01/M04 Q1005 R24/29//95 NOSIG
