2020/11/09 19:30
LKPR 091930Z 33004KT 4000 BR SCT002 BKN003 OVC007 03/02 Q1028 TEMPO 2500 -DZ BR
