2020/12/06 06:30
LKPR 060630Z 12006KT CAVOK 06/03 Q1000 NOSIG
