2020/12/03 06:30
LKPR 030630Z 11004KT 080V150 4000 -SN BR FEW004 SCT023 M02/M03 Q1009 R24/650295 R30///99// NOSIG
