2020/11/07 01:07
LKPR 070107Z 09004KT 0600 R24/0600N FZFG SCT001 M02/M02 Q1032 RMK REG QNH 1028
