2020/12/06 15:30
LKPR 061530Z 16018G28KT 9999 FEW030 10/05 Q1000 NOSIG
