2020/11/24 05:30
LKPR 240530Z 22006KT 8000 NSC M02/M03 Q1028 BECMG 3000 BR SCT002
