2020/12/05 14:00
LKPR 051400Z 06006KT CAVOK 08/03 Q1003 NOSIG
