2020/11/10 00:30
LKPR 100030Z 36004KT 1600 BR SCT001 OVC002 03/03 Q1028 NOSIG
