2020/12/05 04:00
LKPR 050400Z 12003KT CAVOK 01/M01 Q0995 NOSIG
