2020/11/06 23:30
LKPR 062330Z 36001KT CAVOK 00/M01 Q1032 NOSIG
