2020/11/23 23:00
LKPR 232300Z 22006KT CAVOK 00/M01 Q1030 NOSIG
