2020/11/23 02:00
LKPR 230200Z 22009KT 9999 -RA FEW010 SCT021 BKN045 04/03 Q1024 NOSIG
