2020/11/22 14:30
LKPR 221430Z 21012KT 9999 BKN022 06/00 Q1025 NOSIG
