2020/11/13 03:00
LKPR 130300Z 23007KT 9000 FEW009 05/04 Q1022 NOSIG
