2020/11/30 05:30
LKPR 300530Z 23005KT 9999 FEW023 BKN049 M02/M03 Q1025 NOSIG
