2020/11/21 05:00
LKPR 210500Z 21007KT CAVOK M02/M03 Q1035 NOSIG
