2020/11/21 15:30
LKPR 211530Z 18003KT CAVOK 02/M01 Q1032 NOSIG
