2020/12/03 16:30
LKPR 031630Z 14004KT 9999 OVC028 M02/M04 Q1005 R24/29//95 NOSIG
