2020/12/05 13:00
LKPR 051300Z 14008KT CAVOK 08/03 Q1002 NOSIG
