2020/11/22 22:30
LKPR 222230Z 23008KT 9999 FEW029 BKN047 05/02 Q1025 NOSIG
