2020/11/15 11:30
LKPR 151130Z 13007KT 9999 OVC008 05/05 Q1018 NOSIG
