2020/11/17 01:00
LKPR 170100Z 22010KT 9999 FEW039 08/06 Q1023 NOSIG
