2020/11/24 16:00
LKPR 241600Z 12003KT 0500 R24/0600D FZFG VV001 00/00 Q1025 NOSIG
