2020/11/17 02:30
LKPR 170230Z 22011KT CAVOK 08/06 Q1023 NOSIG
