2020/11/09 22:30
LKPR 092230Z 03004KT 2700 BR SCT001 OVC002 03/02 Q1028 NOSIG
