2020/11/25 05:30
LKPR 250530Z VRB05KT 2500 BR FEW001 OVC002 M01/M01 Q1022 TEMPO 0700 FZFG BKN001
