2020/11/29 09:18
LKPR 290918Z 35008KT 9999 BKN013 01/M01 Q1024 RMK REG QNH 1018
