2020/11/14 07:30
LKPR 140730Z 21006KT 9999 -RA BKN048 09/07 Q1022 NOSIG
