2020/11/09 02:30
LKPR 090230Z 10003KT 020V140 0400 R24/0600D FG VV001 01/01 Q1026 NOSIG
