2020/11/25 07:00
LKPR 250700Z 18006KT 150V220 3500 BR OVC003 M01/M01 Q1023 TEMPO 1500 BR
