2020/12/01 10:30
LKPR 011030Z 12006KT 9999 BKN042 M00/M03 Q1016 NOSIG
