2020/11/16 23:30
LKPR 162330Z 23011KT 9999 SCT040 08/06 Q1023 NOSIG
