2020/11/28 09:12
LKPR 280912Z 01005KT 0400 R24/0750N FZFG VV002 M01/M01 Q1022 RMK REG QNH 1018
