2020/11/14 11:00
LKPR 141100Z 20004KT CAVOK 13/09 Q1021 NOSIG
