2020/11/10 08:00
LKPR 100800Z VRB01KT 0600 R24/1200U PRFG VV002 03/03 Q1028 BECMG 1200 BR
