2020/11/13 09:45
LKPR 130945Z 15003KT 6000 SCT007 BKN020 08/06 Q1022 RMK REG QNH 1019
