2020/11/10 19:00
LKPR 101900Z 18004KT 140V210 9999 OVC006 04/03 Q1028 NOSIG
