2020/11/24 14:30
LKPR 241430Z 10004KT 2000 0900SW R24/P2000N BR BCFG SCT001 BKN002 01/00 Q1026 BECMG 1200 BR
