2020/11/24 14:12
LKPR 241412Z 13003KT 2500 0900SW R24/P2000N BR BCFG SCT001 BKN002 01/00 Q1026 RMK REG QNH 1022
