2020/11/08 12:32
LKPR 081232Z VRB02KT 0500 R24/0650D FG OVC002 02/02 Q1026 RMK REG QNH 1023
