2020/11/22 21:00
LKPR 222100Z 23008KT 9999 FEW022 BKN033 05/02 Q1025 NOSIG
