2020/11/22 02:00
LKPR 220200Z 20007KT CAVOK M01/M03 Q1028 NOSIG
