2020/11/09 08:30
LKPR 090830Z 14004KT 2500 BR OVC002 02/02 Q1027 BECMG 3500 BR
