2020/12/04 06:52
LKPR 040652Z VRB01KT 8000 SCT011 OVC014 M01/M01 Q0996 R88/CLRD// RMK REG QNH 0992
