2020/11/07 08:00
LKPR 070800Z 06002KT 0200 R24/0275N FG VV001 01/00 Q1031 NOSIG
