2020/11/09 02:00
LKPR 090200Z VRB02KT 0350 R24/0550N FG VV001 02/02 Q1026 NOSIG
