2020/11/14 06:30
LKPR 140630Z 20004KT 9999 BKN030 09/07 Q1021 NOSIG
