2020/11/09 00:00
LKPR 090000Z 09004KT 070V180 0500 R24/0600N FG VV002 02/01 Q1027 NOSIG
