2020/11/21 19:00
LKPR 211900Z 19008KT CAVOK M00/M03 Q1031 NOSIG
