2020/11/08 12:52
LKPR 081252Z 01003KT 340V040 0500 R24/0900 FG OVC002 02/02 Q1026 RMK REG QNH 1023
