2020/11/30 11:30
LKPR 301130Z 25005KT 200V290 9999 FEW020 02/M03 Q1025 NOSIG
