2020/11/07 03:00
LKPR 070300Z 05002KT 0400 R24/0350D FZFG VV001 M02/M02 Q1031 NOSIG
