2020/11/13 12:00
LKPR 131200Z 21007KT 9999 SCT014 SCT046 10/07 Q1021 NOSIG
