2020/12/06 07:30
LKPR 060730Z 11003KT 080V150 CAVOK 05/03 Q1001 NOSIG
