2020/11/12 12:00
LKPR 121200Z 17003KT 9000 SCT008 OVC029 05/04 Q1022 NOSIG
