2020/11/09 00:30
LKPR 090030Z VRB02KT 0400 R24/0500N FG VV001 02/01 Q1026 NOSIG
