2020/12/04 17:30
LKPR 041730Z 10007KT CAVOK 01/M02 Q0996 NOSIG
