2020/11/15 15:30
LKPR 151530Z 17004KT 080V200 9999 BKN016 06/04 Q1016 NOSIG
