2020/11/12 09:30
LKPR 120930Z 22007KT 9999 SCT012 OVC016 04/02 Q1023 NOSIG
