2020/11/28 08:53
LKPR 280853Z 36004KT 0500 R24/0600N FZFG OVC002 M01/M01 Q1022 RMK REG QNH 1018
