2020/11/10 21:30
LKPR 102130Z 17005KT 9000 OVC006 03/02 Q1029 NOSIG
