2020/11/23 13:00
LKPR 231300Z 29008KT 9999 SCT023 07/02 Q1027 NOSIG
