2020/11/14 21:00
LKPR 142100Z VRB01KT 0350 R24/0325N FG VV001 04/04 Q1021 NOSIG
