2020/11/24 11:00
LKPR 241100Z 15005KT 110V190 0500 R24/P2000N FZFG BKN002 M00/M00 Q1027 BECMG 2000 BR
