2020/11/09 11:00
LKPR 091100Z 11006KT 4800 BR BKN003 OVC005 03/03 Q1027 BECMG 6000 BKN005
