2020/11/10 01:45
LKPR 100145Z 34003KT 0800 R24/0900N FG SCT001 OVC002 03/03 Q1027 RMK REG QNH 1024
