2020/12/05 09:00
LKPR 050900Z VRB02KT CAVOK 06/02 Q1000 NOSIG
