2020/12/03 05:35
LKPR 030535Z 13004KT 2700 SN BR SCT004 OVC018 M02/M03 Q1009 R24/650295 R30///99// RMK REG QNH 1006
