2020/12/06 16:30
LKPR 061630Z 15026KT CAVOK 09/05 Q0999 TEMPO 15032KT
