2020/11/14 18:21
LKPR 141821Z VRB01KT 4500 BR MIFG NSC 07/06 Q1020 RMK REG QNH 1018
