2020/12/01 22:30
LKPR 012230Z 10003KT 050V150 9000 OVC015 M02/M04 Q1020 NOSIG
