2020/12/05 14:30
LKPR 051430Z 07005KT CAVOK 06/03 Q1003 NOSIG
