2020/12/06 04:00
LKPR 060400Z VRB02KT CAVOK 06/03 Q1001 NOSIG
