2020/11/12 00:42
LKPR 120042Z 15004KT 9999 OVC013 04/02 Q1024 RMK REG QNH 1019
