2020/11/21 23:00
LKPR 212300Z 18006KT CAVOK M01/M03 Q1029 NOSIG
