2020/11/19 14:30
LKPR 191430Z 23009KT 9999 SCT020 BKN040 09/07 Q1018 NOSIG
