2020/12/07 04:30
LKPR 070430Z 15015G25KT 9999 BKN020 07/04 Q0997 NOSIG
