2020/11/27 07:00
LKPR 270700Z 23004KT 0300 R24/0500N FZFG VV001 M01/M02 Q1022 NOSIG
