2020/11/26 02:00
LKPR 260200Z 19005KT 9000 OVC005 M01/M02 Q1023 NOSIG
