2020/11/14 18:54
LKPR 141854Z 04002KT 0500 R24/0400D PRFG FEW002 07/07 Q1021 RMK REG QNH 1018
