2020/12/08 07:30
LKPR 080730Z 10004KT CAVOK 00/M01 Q1005 NOSIG
