2020/11/08 11:00
LKPR 081100Z VRB02KT 0450 R24/0800N FG OVC002 02/01 Q1027 TEMPO 0900 FG OVC003
