2020/12/01 02:00
LKPR 010200Z 18004KT CAVOK M03/M04 Q1018 NOSIG
