2020/12/08 07:00
LKPR 080700Z 09006KT CAVOK M00/M01 Q1005 NOSIG
