2020/12/04 12:30
LKPR 041230Z 12006KT 080V140 9999 FEW019 02/M01 Q0995 NOSIG
