2020/11/30 09:30
LKPR 300930Z 22004KT 9999 BKN040 M00/M02 Q1026 NOSIG
