2020/11/09 08:00
LKPR 090800Z 14004KT 1300 R24/1600N BR OVC002 02/02 Q1027 BECMG 1600 BR
