2020/12/03 02:30
LKPR 030230Z 13003KT 9000 OVC015 M02/M04 Q1011 NOSIG
