2020/11/24 21:48
LKPR 242148Z VRB02KT 1000 R24/1200U BR OVC002 M00/M00 Q1024 RMK REG QNH 1020
