2020/11/08 13:23
LKPR 081323Z VRB02KT 0400 R24/1000U FG VV002 02/02 Q1026 RMK REG QNH 1023
