2020/11/10 21:00
LKPR 102100Z 15005KT 9999 OVC006 04/02 Q1029 NOSIG
