2020/12/02 13:30
LKPR 021330Z 10006KT 9999 FEW023 M01/M05 Q1016 NOSIG
