2020/12/02 16:30
LKPR 021630Z 09007KT CAVOK M05/M07 Q1015 NOSIG
