2020/11/19 02:30
LKPR 190230Z 15004KT CAVOK 04/03 Q1021 NOSIG
