2020/11/27 14:00
LKPR 271400Z 18003KT 140V210 1800 BR OVC002 M00/M00 Q1021 TEMPO 1100 BR
