2020/12/02 19:00
LKPR 021900Z 10005KT CAVOK M04/M06 Q1014 NOSIG
