2020/11/28 11:41
LKPR 281141Z 31003KT 260V030 1800 BR BKN002 OVC004 M00/M00 Q1022 RMK REG QNH 1018
