2020/11/06 20:00
LKPR 062000Z VRB04KT CAVOK 03/01 Q1033 NOSIG
