2020/11/10 16:00
LKPR 101600Z 20004KT 150V230 9999 OVC009 04/03 Q1028 NOSIG
