2020/11/23 17:30
LKPR 231730Z 23006KT CAVOK 02/M01 Q1029 NOSIG
