2020/11/14 03:30
LKPR 140330Z 21006KT 170V230 9999 FEW028 BKN036 09/06 Q1021 NOSIG
