2020/11/10 02:00
LKPR 100200Z 34003KT 0700 R24/0900N FG VV002 03/02 Q1027 NOSIG
