2020/11/27 21:49
LKPR 272149Z VRB01KT 0600 R24/0700D FZFG VV002 M00/M01 Q1022 RMK REG QNH 1018
