2020/11/25 09:30
LKPR 250930Z 14004KT 110V190 3300 BR FEW003 OVC004 M01/M01 Q1023 NOSIG
