2020/11/08 19:00
LKPR 081900Z 04004KT 0400 R24/0450N FG VV001 02/02 Q1026 NOSIG
