2020/12/01 06:30
LKPR 010630Z 15006KT 9999 BKN038 M02/M04 Q1016 NOSIG
