2020/11/16 15:00
LKPR 161500Z 24012KT 9999 FEW030 08/05 Q1018 NOSIG
