2020/11/20 23:00
LKPR 202300Z 25005KT 9999 FEW025 BKN043 00/M01 Q1035 NOSIG
