2020/11/14 05:30
LKPR 140530Z 20007KT 9999 FEW028 BKN040 09/07 Q1021 NOSIG
