2020/11/28 12:47
LKPR 281247Z VRB01KT 9000 BKN005 OVC008 M00/M00 Q1022 RMK REG QNH 1018
