2020/11/22 07:30
LKPR 220730Z 20007KT 160V230 CAVOK 00/M02 Q1027 NOSIG
