2020/11/19 05:30
LKPR 190530Z 16010KT CAVOK 03/02 Q1019 NOSIG
