2020/11/12 19:30
LKPR 121930Z 19004KT 9999 OVC017 07/05 Q1022 NOSIG
