2020/11/10 07:30
LKPR 100730Z VRB02KT 0400 R24/0650N FG VV002 03/03 Q1028 NOSIG
