2020/11/22 09:30
LKPR 220930Z 21015KT 9999 SCT034 02/M02 Q1027 NOSIG
