2020/11/07 06:15
LKPR 070615Z 04004KT 0200 R24/0275N FZFG VV001 M00/M01 Q1031 RMK REG QNH 1027
