2020/11/10 19:30
LKPR 101930Z 17004KT 9999 OVC006 04/03 Q1029 NOSIG
