2020/11/10 07:00
LKPR 100700Z 33002KT 0450 R24/0650N FG VV002 03/03 Q1028 NOSIG
