2020/12/02 14:30
LKPR 021430Z 10008KT 9999 FEW023 M01/M05 Q1016 NOSIG
