2020/11/25 04:00
LKPR 250400Z 16003KT 100V250 1400 R24/1500N BR VCFG SCT001 OVC002 M01/M01 Q1023 TEMPO 0700 FZFG BKN001
