2020/11/29 09:41
LKPR 290941Z 35009KT 9999 SCT012 01/M01 Q1024 RMK REG QNH 1018
