2020/11/26 01:00
LKPR 260100Z 22006KT 9000 OVC005 M01/M02 Q1023 NOSIG
