2020/12/03 04:52
LKPR 030452Z 13004KT 3500 SN BR SCT007 OVC022 M02/M03 Q1010 R24///99// R30///99// RMK REG QNH 1006
