2020/12/03 19:30
LKPR 031930Z 13004KT CAVOK M03/M05 Q1003 R24/29//95 NOSIG
