2020/11/20 07:00
LKPR 200700Z 27004KT CAVOK 00/M02 Q1029 NOSIG
