2020/11/12 06:07
LKPR 120607Z 21004KT 180V240 3500 -DZ BR SCT003 BKN006 OVC013 03/03 Q1022 RMK REG QNH 1017
