2020/11/14 03:00
LKPR 140300Z 19003KT 140V230 9999 -RA SCT040 09/06 Q1021 NOSIG
