2020/11/25 05:45
LKPR 250545Z 18006KT 3000 BR OVC002 M01/M01 Q1022 RMK REG QNH 1019
