2020/11/24 07:39
LKPR 240739Z 19004KT 0400 R24/P2000N FZFG VV001 M03/M03 Q1029 RMK REG QNH 1024
