2020/12/03 13:30
LKPR 031330Z 18006KT 5000 BR BKN012 OVC016 M01/M03 Q1006 R24/29//95 NOSIG
