2020/11/24 06:30
LKPR 240630Z 17004KT 8000 NSC M03/M03 Q1029 NOSIG
