2020/12/01 10:00
LKPR 011000Z 13005KT 090V160 9999 BKN038 M01/M03 Q1016 NOSIG
