2020/11/26 02:30
LKPR 260230Z 18004KT 150V230 8000 SCT004 OVC005 M01/M02 Q1023 NOSIG
