2020/11/11 15:30
LKPR 111530Z 14006KT 9999 OVC015 05/02 Q1026 NOSIG
