2020/11/21 12:30
LKPR 211230Z 21009KT 9999 FEW020 04/M01 Q1033 NOSIG
