2020/11/11 00:30
LKPR 110030Z 00000KT 8000 -DZ FEW005 BKN008 OVC010 03/03 Q1028 NOSIG
