2020/11/23 22:30
LKPR 232230Z 22007KT CAVOK 01/M01 Q1030 NOSIG
