2020/12/01 06:00
LKPR 010600Z 14005KT CAVOK M02/M04 Q1016 NOSIG
