2020/11/15 10:00
LKPR 151000Z 16008KT 9000 OVC005 05/05 Q1020 NOSIG
