2020/11/17 09:30
LKPR 170930Z 24013KT 9999 FEW017 10/05 Q1027 NOSIG
