2020/11/22 12:30
LKPR 221230Z 24011KT CAVOK 06/M01 Q1025 NOSIG
