2020/11/13 01:00
LKPR 130100Z 21008KT 9999 FEW011 SCT028 06/05 Q1022 NOSIG
