2020/11/09 13:30
LKPR 091330Z 18004KT 2500 BR BKN002 OVC003 02/02 Q1027 NOSIG
