2020/11/21 08:00
LKPR 210800Z 22008KT 9000 NSC M02/M02 Q1035 NOSIG
