2020/11/18 13:30
LKPR 181330Z 15005KT CAVOK 12/05 Q1026 NOSIG
