2020/11/07 23:41
LKPR 072341Z 23004KT 0400 R24/0550N FG VV001 01/01 Q1026 RMK REG QNH 1022
