2020/11/09 18:30
LKPR 091830Z VRB01KT 6000 BKN004 OVC006 03/02 Q1028 NOSIG
