2020/11/10 04:00
LKPR 100400Z 34003KT 0700 R24/0900D FG VV002 02/02 Q1027 NOSIG
