2020/11/08 01:00
LKPR 080100Z 27002KT 0400 R24/0600N FG VV002 02/01 Q1026 NOSIG
