2020/11/16 17:30
LKPR 161730Z 21011KT CAVOK 08/05 Q1020 NOSIG
