2020/11/20 02:30
LKPR 200230Z 30007KT CAVOK 03/00 Q1026 NOSIG
