2020/11/25 02:00
LKPR 250200Z 13004KT 100V160 1800 BR FEW001 OVC002 M00/M00 Q1023 NOSIG
