2020/11/11 11:00
LKPR 111100Z 21003KT 160V250 9999 OVC014 05/03 Q1027 TEMPO BKN016
