2020/12/04 15:00
LKPR 041500Z 10007KT CAVOK 01/M01 Q0995 NOSIG
