2020/11/22 17:00
LKPR 221700Z 22009KT 9999 BKN023 05/02 Q1025 NOSIG
