2020/11/12 20:00
LKPR 122000Z 20006KT 9999 BKN015 OVC019 07/05 Q1022 TEMPO BKN012
