2020/11/27 08:30
LKPR 270830Z 21005KT 0400 R24/0650N FZFG VV002 M01/M02 Q1022 BECMG 0700 FZFG
