2020/11/11 03:00
LKPR 110300Z 18003KT 140V230 9000 -DZ FEW005 BKN007 OVC010 04/03 Q1028 NOSIG
