2020/12/06 11:30
LKPR 061130Z 16008KT CAVOK 12/05 Q1000 NOSIG
