2020/12/06 09:30
LKPR 060930Z 09005KT CAVOK 09/05 Q1000 NOSIG
