2020/11/23 16:30
LKPR 231630Z 26009KT CAVOK 02/00 Q1028 NOSIG
