2020/11/30 20:30
LKPR 302030Z 17007KT CAVOK M02/M04 Q1020 NOSIG
