2020/12/04 04:00
LKPR 040400Z 10004KT 070V130 9000 OVC010 M01/M02 Q0996 R24/29//95 NOSIG
