2020/11/22 17:30
LKPR 221730Z 23012KT 9999 BKN020 BKN043 05/02 Q1025 NOSIG
