2020/12/03 12:00
LKPR 031200Z 20006KT 6000 SCT011 BKN014 OVC018 M01/M04 Q1006 R24/29//95 NOSIG
