2020/11/20 06:00
LKPR 200600Z 28007KT CAVOK 01/M01 Q1028 NOSIG
