2020/12/06 22:00
LKPR 062200Z 15024G36KT 9999 FEW023 08/04 Q0998 NOSIG
