2020/12/04 00:30
LKPR 040030Z 09007KT 8000 OVC012 M03/M04 Q0998 R24/29//95 NOSIG
