2020/11/23 11:00
LKPR 231100Z 26009KT 9999 FEW010 BKN036 06/05 Q1026 BECMG TL1200 30010KT
