2020/11/16 16:30
LKPR 161630Z 21009KT CAVOK 07/05 Q1019 NOSIG
