2020/11/18 12:30
LKPR 181230Z 17006KT CAVOK 13/05 Q1027 NOSIG
