2020/11/26 18:44
LKPR 261844Z 24005KT 2500 BR OVC002 M01/M01 Q1023 RMK REG QNH 1018
