2020/11/21 16:30
LKPR 211630Z 16004KT CAVOK 01/M02 Q1031 NOSIG
