2020/11/09 18:00
LKPR 091800Z VRB01KT 7000 BKN004 OVC006 03/02 Q1028 NOSIG
