2020/12/04 08:00
LKPR 040800Z 08003KT 9999 FEW013 BKN017 00/M01 Q0996 NOSIG
