2020/11/10 03:30
LKPR 100330Z 34004KT 0800 R24/1200N FG VV002 02/02 Q1027 NOSIG
