2020/11/28 11:51
LKPR 281151Z VRB02KT 2500 BR SCT002 BKN003 OVC005 M00/M00 Q1022 RMK REG QNH 1018
