2020/12/03 10:34
LKPR 031034Z 18006KT 6000 BKN010 OVC020 M01/M03 Q1008 R24/620195 RMK REG QNH 1002
