2020/11/24 07:30
LKPR 240730Z 18006KT 0750 R24/P2000N FZFG VV001 M03/M04 Q1029 TEMPO 0500 FZFG
