2020/11/26 10:00
LKPR 261000Z 17004KT 140V200 4500 BR FEW003 OVC004 M01/M02 Q1023 NOSIG
