2020/11/24 05:00
LKPR 240500Z 20006KT 9000 NSC M02/M03 Q1028 BECMG 3000 BR SCT002
