2020/11/13 08:41
LKPR 130841Z 00000KT 4000 BR FEW005 BKN008 06/05 Q1022 RMK REG QNH 1020
