2020/11/13 04:30
LKPR 130430Z 23004KT 5000 BR FEW004 03/03 Q1022 BECMG 3000 BR
