2020/11/11 23:30
LKPR 112330Z 13003KT 090V160 9999 FEW012 OVC014 04/01 Q1025 NOSIG
