2020/11/28 21:30
LKPR 282130Z 34002KT 9999 OVC032 00/M02 Q1023 NOSIG
