2020/11/21 07:15
LKPR 210715Z 18008KT 4500 1000SW R24/P2000N BR BCFG FEW001 M03/M03 Q1035 RMK REG QNH 1031
