2020/11/25 14:00
LKPR 251400Z 18005KT 6000 OVC007 M00/M01 Q1023 NOSIG
