2020/11/30 21:30
LKPR 302130Z 17006KT CAVOK M02/M04 Q1020 NOSIG
