2020/11/29 04:00
LKPR 290400Z 32003KT 9999 BKN035 M00/M01 Q1023 NOSIG
