2020/11/11 01:00
LKPR 110100Z 00000KT 7000 -DZ FEW003 BKN008 OVC010 03/03 Q1028 NOSIG
