2020/11/15 08:00
LKPR 150800Z 17006KT 4000 BR OVC003 04/04 Q1020 NOSIG
