2020/11/30 22:00
LKPR 302200Z 17007KT CAVOK M03/M05 Q1020 NOSIG
