2020/12/03 13:00
LKPR 031300Z 18005KT 5000 BR OVC012 M02/M03 Q1006 R24/29//95 NOSIG
