2020/11/24 09:00
LKPR 240900Z 17003KT 130V220 0250 R24/0650U FZFG VV001 M02/M03 Q1028 NOSIG
