2020/12/05 01:00
LKPR 050100Z 09005KT CAVOK 01/M01 Q0995 NOSIG
