2020/12/04 11:00
LKPR 041100Z 14007KT 9999 BKN017 02/M01 Q0995 TEMPO BKN020
