2020/12/02 01:00
LKPR 020100Z 10003KT 070V140 9999 OVC017 M01/M03 Q1020 NOSIG
