2020/11/30 17:00
LKPR 301700Z 19005KT CAVOK M01/M03 Q1022 NOSIG
