2020/11/29 21:30
LKPR 292130Z 27005KT CAVOK 00/M01 Q1024 NOSIG
