2020/11/16 19:00
LKPR 161900Z 22010KT CAVOK 07/05 Q1021 NOSIG
