2020/11/25 05:00
LKPR 250500Z 14006KT 1600 BR SCT001 OVC002 M01/M01 Q1022 REFZDZ TEMPO 0700 FZFG BKN001
