2020/12/05 16:30
LKPR 051630Z 05006KT CAVOK 05/02 Q1003 NOSIG
