2020/11/16 20:00
LKPR 162000Z 22012KT CAVOK 07/05 Q1021 NOSIG
