2020/11/14 13:00
LKPR 141300Z 23004KT CAVOK 15/09 Q1021 NOSIG
