2020/11/26 23:30
LKPR 262330Z 21004KT 0600 R24/1200N FZFG VV001 M01/M01 Q1022 NOSIG
