2020/11/14 04:30
LKPR 140430Z 13003KT 110V180 9999 FEW022 BKN028 09/06 Q1021 NOSIG
