2020/11/14 09:30
LKPR 140930Z 20004KT 170V230 CAVOK 11/09 Q1022 NOSIG
