2020/11/15 04:44
LKPR 150444Z 11003KT 030V150 4000 1000W R24/P2000U BR BCFG BKN002 03/02 Q1019 RMK REG QNH 1016
