2020/12/01 00:30
LKPR 010030Z 16007KT CAVOK M02/M04 Q1018 NOSIG
