2020/11/09 12:30
LKPR 091230Z 12004KT 4000 BR SCT002 OVC003 03/03 Q1027 NOSIG
