2020/11/25 08:00
LKPR 250800Z 15004KT 3000 BR BKN003 OVC004 M01/M01 Q1023 NOSIG
