2020/11/21 07:33
LKPR 210733Z 20008KT 3500 2000W BR VCFG FEW001 M02/M03 Q1035 RMK REG QNH 1031
