2020/12/03 11:41
LKPR 031141Z 19005KT 160V220 6000 SCT010 BKN014 OVC019 M01/M03 Q1007 R24/29//95 RMK REG QNH 1002
