2020/11/20 01:30
LKPR 200130Z 30010KT CAVOK 04/01 Q1026 NOSIG
