2020/11/07 07:00
LKPR 070700Z 03003KT 360V100 0200 R24/0250N FZFG VV001 M00/M00 Q1031 NOSIG
