2020/11/20 22:30
LKPR 202230Z 25005KT 9999 BKN025 01/M01 Q1035 NOSIG
