2020/11/23 08:00
LKPR 230800Z 23012KT 9000 FEW023 OVC025 05/04 Q1025 NOSIG
