2020/11/27 03:30
LKPR 270330Z 25004KT 0600 R24/0900D FZFG VV002 M01/M01 Q1022 NOSIG
