2020/11/07 13:00
LKPR 071300Z 03003KT 0200 R24/0400N FG VV002 03/03 Q1028 NOSIG
