2020/12/04 21:00
LKPR 042100Z 10008KT CAVOK M01/M02 Q0996 NOSIG
