2020/12/05 09:30
LKPR 050930Z 15005KT CAVOK 05/02 Q1001 NOSIG
