2020/11/15 04:00
LKPR 150400Z 10003KT 350V140 3000 0800NW R24/0450N BR BCFG BKN001 02/02 Q1019 TEMPO 0400 FG
