2020/11/14 11:30
LKPR 141130Z 20005KT 170V230 CAVOK 14/09 Q1021 NOSIG
