2020/11/08 06:00
LKPR 080600Z 22005KT 0400 R24/0700D FZFG VV002 M00/M01 Q1026 TEMPO 0300 FZFG VV001
