2020/11/09 08:16
LKPR 090816Z 15003KT 2500 BR OVC002 02/02 Q1027 RMK REG QNH 1023
