2020/11/19 23:00
LKPR 192300Z 29008KT 9999 FEW033 05/03 Q1025 NOSIG
