2020/11/17 20:00
LKPR 172000Z 24010KT 9999 FEW033 09/05 Q1027 NOSIG
