2020/11/14 08:00
LKPR 140800Z 21006KT 9999 BKN048 10/08 Q1022 NOSIG
