2020/12/05 11:00
LKPR 051100Z VRB01KT CAVOK 06/02 Q1002 NOSIG
