2020/11/08 10:00
LKPR 081000Z 15004KT 080V200 0400 R24/0900N FG OVC002 01/01 Q1027 TEMPO 0900 FG OVC003
