2020/11/13 11:46
LKPR 131146Z 21007KT 9999 SCT014 BKN048 10/07 Q1021 RMK REG QNH 1019
