2020/11/30 02:00
LKPR 300200Z 23005KT 9999 FEW017 M01/M03 Q1024 NOSIG
