2020/11/07 05:00
LKPR 070500Z 02003KT 340V050 0400 R24/0450N FZFG VV001 M01/M01 Q1031 NOSIG
