2020/11/15 08:30
LKPR 150830Z 17007KT 5000 BR OVC003 04/04 Q1020 NOSIG
