2020/11/26 07:00
LKPR 260700Z 24006KT 5000 BR OVC005 M02/M03 Q1024 NOSIG
