2020/11/10 15:30
LKPR 101530Z 13003KT 100V160 9999 OVC010 04/03 Q1028 NOSIG
