2020/11/16 00:00
LKPR 160000Z 17008KT 9999 OVC009 05/04 Q1013 NOSIG
