2020/11/28 07:48
LKPR 280748Z 33004KT 260V360 0500 R24/0700D -FZDZ FZFG VV002 M01/M01 Q1022 RMK REG QNH 1018
