2020/11/28 05:00
LKPR 280500Z 28003KT 0500 R24/0750N FZFG VV001 M01/M01 Q1021 NOSIG
