2020/11/24 20:00
LKPR 242000Z 02002KT 0400 R24/0550N FZFG VV001 M00/M01 Q1024 NOSIG
