2020/11/08 13:30
LKPR 081330Z VRB03KT 0400 R24/0600U FG VV002 02/02 Q1026 NOSIG
