2020/12/03 03:30
LKPR 030330Z 14002KT 9000 OVC015 M02/M04 Q1011 BECMG 3000 SN BR BKN008
