2020/11/13 19:00
LKPR 131900Z 32003KT 230V360 CAVOK 07/06 Q1021 NOSIG
