2020/11/19 03:00
LKPR 190300Z 18005KT CAVOK 04/03 Q1020 NOSIG
