2020/11/18 14:00
LKPR 181400Z 16005KT CAVOK 12/05 Q1026 NOSIG
