2020/12/03 17:30
LKPR 031730Z 14007KT 9999 OVC028 M01/M04 Q1004 R24/29//95 NOSIG
