2020/11/25 13:00
LKPR 251300Z 18005KT 150V210 5000 BR OVC006 M00/M01 Q1023 NOSIG
