2020/11/25 03:00
LKPR 250300Z 13005KT 090V160 1000 R24/1100N BR BCFG SCT001 OVC002 M00/M00 Q1022 TEMPO 0700 FZFG BKN001
