2020/11/07 04:30
LKPR 070430Z VRB02KT 0300 R24/0500N FZFG VV001 M01/M02 Q1031 NOSIG
