2020/11/30 06:00
LKPR 300600Z 22005KT 9999 FEW025 SCT033 BKN049 M02/M03 Q1025 NOSIG
