2020/11/10 13:00
LKPR 101300Z 14003KT 110V170 9999 OVC010 05/03 Q1028 NOSIG
