2020/11/29 06:00
LKPR 290600Z 31003KT 250V010 9999 BKN035 M01/M02 Q1023 NOSIG
