2020/11/10 13:30
LKPR 101330Z 14004KT 100V160 9999 OVC011 05/03 Q1028 NOSIG
