2020/11/28 10:19
LKPR 281019Z 04004KT 1100 R24/1200D BKN002 OVC003 M00/M00 Q1023 RMK REG QNH 1018
