2020/11/12 03:20
LKPR 120320Z 15002KT 6000 -DZ FEW003 BKN005 OVC018 03/03 Q1023 RMK REG QNH 1018
