2020/11/26 23:00
LKPR 262300Z 18004KT 0600 R24/1100U FZFG VV001 M01/M01 Q1022 NOSIG
