2020/12/02 20:30
LKPR 022030Z 09007KT 9000 NSC M05/M06 Q1013 NOSIG
