2020/11/27 11:30
LKPR 271130Z 21004KT 170V250 0800 R24/P2000N FZFG OVC002 M01/M01 Q1022 TEMPO 1500 BR
