2020/11/11 14:30
LKPR 111430Z 14003KT 110V170 9999 OVC015 05/03 Q1026 NOSIG
