2020/11/19 10:30
LKPR 191030Z 12003KT 060V180 9999 BKN028 09/05 Q1018 NOSIG
