2020/11/10 02:30
LKPR 100230Z 33003KT 0600 R24/0800N FG VV002 03/02 Q1027 NOSIG
