2020/12/02 08:00
LKPR 020800Z 12007KT 9999 BKN017 M02/M05 Q1020 NOSIG
