2020/12/02 21:30
LKPR 022130Z 11005KT 9000 BKN023 M03/M04 Q1013 NOSIG
