2020/12/02 23:00
LKPR 022300Z 11005KT 9000 OVC019 M03/M05 Q1013 NOSIG
