2020/11/09 16:30
LKPR 091630Z 14003KT 060V200 8000 BKN003 OVC005 02/02 Q1028 NOSIG
