2020/12/02 11:30
LKPR 021130Z 13008KT 9999 BKN021 M01/M05 Q1018 NOSIG
