2020/11/13 09:30
LKPR 130930Z VRB02KT 5000 BR FEW006 BKN011 BKN022 07/06 Q1022 NOSIG
