2020/11/28 05:30
LKPR 280530Z 31003KT 0400 R24/0700N FZFG VV001 M01/M01 Q1021 NOSIG
