2020/12/01 03:30
LKPR 010330Z 18003KT CAVOK M03/M04 Q1017 NOSIG
