2020/11/11 12:00
LKPR 111200Z 18003KT 100V220 9999 OVC014 05/02 Q1027 NOSIG
