2020/12/06 05:00
LKPR 060500Z 10003KT CAVOK 06/03 Q1000 NOSIG
