2020/11/21 21:00
LKPR 212100Z 19009KT CAVOK M00/M03 Q1030 NOSIG
