2020/11/29 22:30
LKPR 292230Z 27005KT CAVOK M00/M02 Q1024 NOSIG
