2020/11/17 13:30
LKPR 171330Z 24014KT 9999 FEW026 BKN040 10/05 Q1026 NOSIG
