2020/11/22 20:30
LKPR 222030Z 24008KT 9999 FEW022 BKN033 05/02 Q1025 NOSIG
