2020/12/06 07:00
LKPR 060700Z 09004KT CAVOK 05/04 Q1001 NOSIG
