2020/12/03 01:00
LKPR 030100Z 13004KT 9000 OVC016 M03/M04 Q1012 BECMG OVC012
