2020/11/29 23:00
LKPR 292300Z 28005KT CAVOK M00/M02 Q1024 NOSIG
