2020/12/01 20:30
LKPR 012030Z 11004KT 9000 FEW023 M04/M05 Q1020 NOSIG
