2020/11/27 08:00
LKPR 270800Z 23005KT 0400 R24/0750D FZFG VV002 M01/M01 Q1022 TEMPO 0700 FZFG
