2020/11/09 22:00
LKPR 092200Z 03005KT 330V050 2500 BR SCT001 OVC002 03/02 Q1028 NOSIG
