2020/11/07 20:00
LKPR 072000Z 23004KT 180V250 0500 R24/0750N FG VV002 02/02 Q1027 NOSIG
