2020/11/10 20:30
LKPR 102030Z 15003KT 120V200 9999 OVC006 04/03 Q1029 NOSIG
