2020/11/18 02:00
LKPR 180200Z 22008KT 9999 FEW046 05/03 Q1028 NOSIG
