2020/11/14 10:30
LKPR 141030Z 20005KT 170V230 CAVOK 12/09 Q1021 NOSIG
