2020/11/25 11:30
LKPR 251130Z 13005KT 090V160 5000 BR BKN005 OVC006 M01/M01 Q1023 NOSIG
