2020/12/06 00:00
LKPR 060000Z 36004KT CAVOK 06/03 Q1001 NOSIG
