2020/11/24 11:45
LKPR 241145Z 13004KT 100V190 3500 1100SW R24/P2000N BR FEW002 BKN003 01/01 Q1027 RMK REG QNH 1023
