2020/11/13 15:00
LKPR 131500Z 13002KT CAVOK 09/07 Q1021 NOSIG
