2020/11/28 12:14
LKPR 281214Z VRB01KT 6000 FEW003 SCT004 OVC005 M00/M00 Q1022 RMK REG QNH 1018
