2020/11/06 19:00
LKPR 061900Z 12004KT 070V160 CAVOK 04/01 Q1033 NOSIG
