2020/11/14 00:30
LKPR 140030Z 20006KT CAVOK 08/06 Q1021 NOSIG
