2020/11/27 17:00
LKPR 271700Z 00000KT 1400 R24/1500N BR FEW001 OVC002 M00/M00 Q1021 BECMG 0700 FZFG
