2020/11/13 08:00
LKPR 130800Z 00000KT 3500 BR FEW005 BKN015 05/05 Q1022 TEMPO BKN005
