2020/11/26 08:19
LKPR 260819Z 17005KT 140V200 4700 BR OVC004 M02/M02 Q1024 RMK REG QNH 1019
