2020/11/24 16:30
LKPR 241630Z 00000KT 0400 R24/0500N FZFG VV001 00/00 Q1025 NOSIG
