2020/12/01 05:30
LKPR 010530Z 14006KT CAVOK M02/M04 Q1016 TEMPO 5000 -SN BKN030
