2020/11/19 15:30
LKPR 191530Z 27013KT 9999 SCT026 09/05 Q1019 NOSIG
