2020/11/16 16:00
LKPR 161600Z 21008KT CAVOK 07/05 Q1019 NOSIG
