2020/11/24 13:00
LKPR 241300Z 15004KT 3200 BR SCT002 BKN003 01/01 Q1026 BECMG 2500 BR
