2020/11/24 10:30
LKPR 241030Z 16004KT 0250 R24/0700U FZFG VV001 M01/M01 Q1028 NOSIG
