2020/12/06 23:00
LKPR 062300Z 15022G32KT CAVOK 08/04 Q0998 NOSIG
