2020/11/07 07:30
LKPR 070730Z VRB01KT 0200 R24/0275N FG VV001 00/00 Q1031 NOSIG
