2020/11/07 23:30
LKPR 072330Z 22004KT 0400 R24/0600N FG VV002 02/01 Q1026 NOSIG
