2020/11/26 22:30
LKPR 262230Z 20005KT 0600 R24/0800N FZFG VV001 M01/M01 Q1022 NOSIG
