2020/12/03 07:39
LKPR 030739Z 14005KT 110V170 4000 -SG BR BKN007 BKN020 M02/M03 Q1009 R24/620195 RMK REG QNH 1004
