2020/11/21 11:30
LKPR 211130Z 19007KT CAVOK 04/M00 Q1034 NOSIG
