2020/11/30 06:30
LKPR 300630Z 23004KT 9999 SCT030 BKN049 M02/M03 Q1025 NOSIG
