2020/11/08 09:00
LKPR 080900Z 15004KT 080V190 0350 R24/0700 FZFG VV002 00/00 Q1027 TEMPO 0700 FZFG
