2020/11/30 17:30
LKPR 301730Z 18006KT CAVOK M01/M03 Q1022 NOSIG
