2020/11/10 09:39
LKPR 100939Z VRB01KT 2500 BR SCT002 OVC010 04/03 Q1029 RMK REG QNH 1025
