2020/11/07 00:00
LKPR 070000Z VRB02KT 7000 NSC 01/M00 Q1032 NOSIG
