2020/11/07 18:00
LKPR 071800Z VRB02KT 0400 R24/0600U FG VV002 02/02 Q1027 NOSIG
