2020/11/28 06:53
LKPR 280653Z 35004KT 0500 R24/0750N -FZDZ FZFG VV002 M01/M01 Q1021 RMK REG QNH 1018
