2020/11/21 09:00
LKPR 210900Z 21008KT CAVOK M01/M02 Q1035 NOSIG
