2020/11/17 00:30
LKPR 170030Z 22009KT 9999 FEW043 08/06 Q1023 NOSIG
