2020/12/01 21:30
LKPR 012130Z 12004KT 9000 BKN013 M03/M04 Q1020 NOSIG
