2020/12/06 12:30
LKPR 061230Z 13008KT 100V160 9999 FEW030 12/05 Q0999 NOSIG
