2020/11/28 20:30
LKPR 282030Z 28002KT 9999 OVC032 00/M01 Q1023 NOSIG
