2020/11/12 07:13
LKPR 120713Z 21005KT 9000 SCT008 OVC014 03/02 Q1023 RMK REG QNH 1017
