2020/11/24 08:30
LKPR 240830Z 15004KT 0600 R24/0600U FZFG VV001 M02/M03 Q1028 NOSIG
