2020/12/06 13:54
LKPR 061354Z 13016G26KT 9999 FEW030 12/05 Q0999 RMK REG QNH 0996
