2020/11/26 12:00
LKPR 261200Z 23004KT 200V260 5000 BR OVC005 M01/M02 Q1023 NOSIG
