2020/11/20 21:00
LKPR 202100Z 23005KT 9999 SCT029 BKN048 00/M01 Q1034 NOSIG
