2020/12/04 01:00
LKPR 040100Z 10006KT 8000 OVC010 M02/M04 Q0998 R24/29//95 NOSIG
