2020/11/09 20:30
LKPR 092030Z 03003KT 2700 BR SCT001 BKN002 OVC009 03/02 Q1028 BECMG BKN001
