2020/12/03 00:00
LKPR 030000Z 12005KT 9000 OVC018 M03/M05 Q1012 NOSIG
