2020/12/06 02:00
LKPR 060200Z 07005KT CAVOK 06/03 Q1001 NOSIG
