2020/11/13 07:30
LKPR 130730Z 00000KT 3500 BR FEW005 BKN014 05/05 Q1022 TEMPO BKN005
