2020/11/14 17:00
LKPR 141700Z 12006KT 7000 NSC 08/07 Q1020 TEMPO 3500 BR
