2020/12/07 21:30
LKPR 072130Z 10007KT 9999 BKN025 04/03 Q1004 NOSIG
