2020/11/24 15:33
LKPR 241533Z 08003KT 0700 R24/0900D FZFG VV001 00/00 Q1025 RMK REG QNH 1021
