2020/11/12 02:30
LKPR 120230Z 14003KT 7000 -DZ SCT005 BKN009 OVC018 03/02 Q1023 TEMPO 4000 BR BKN005
