2020/11/22 12:00
LKPR 221200Z 24012KT CAVOK 06/M01 Q1026 NOSIG
