2020/12/03 04:09
LKPR 030409Z 15004KT 4500 SN BR OVC016 M02/M04 Q1010 RMK REG QNH 1006
