2020/12/05 22:30
LKPR 052230Z VRB02KT CAVOK 02/02 Q1002 NOSIG
