2020/11/13 11:00
LKPR 131100Z 24007KT 9999 SCT013 BKN015 09/06 Q1022 NOSIG
