2020/11/25 11:00
LKPR 251100Z 17005KT 140V200 5000 BR FEW004 BKN005 OVC007 M01/M01 Q1023 NOSIG
