2020/11/26 03:00
LKPR 260300Z 19004KT 8000 BKN004 OVC005 M02/M02 Q1023 NOSIG
