2020/11/15 01:00
LKPR 150100Z VRB01KT 0300 R24/0400N FG VV001 05/05 Q1020 NOSIG
