2020/11/13 13:00
LKPR 131300Z 25007KT 9999 FEW015 BKN043 10/07 Q1021 NOSIG
