2020/11/17 01:30
LKPR 170130Z 22011KT 9999 FEW042 08/06 Q1023 NOSIG
