2020/11/09 15:00
LKPR 091500Z 17003KT 4000 BR OVC003 02/02 Q1027 NOSIG
