2020/12/04 14:00
LKPR 041400Z 11006KT 9999 FEW019 01/M01 Q0995 NOSIG
