2020/12/02 12:30
LKPR 021230Z 13008KT 9999 BKN023 M01/M05 Q1017 NOSIG
