2020/11/25 01:00
LKPR 250100Z VRB02KT 1300 R24/1900D BR OVC002 M00/M00 Q1023 TEMPO 0700 FZFG
