2020/12/04 18:30
LKPR 041830Z 09006KT CAVOK M00/M02 Q0995 NOSIG
