2020/11/07 15:00
LKPR 071500Z 03003KT 0250 R24/0375N FG VV001 03/03 Q1027 NOSIG
