2020/11/25 23:00
LKPR 252300Z 21004KT 160V250 9999 OVC006 M01/M02 Q1023 NOSIG
