2020/11/19 01:30
LKPR 190130Z 20005KT CAVOK 04/03 Q1021 NOSIG
