2020/11/30 21:00
LKPR 302100Z 17006KT CAVOK M02/M04 Q1020 NOSIG
