2020/11/23 15:30
LKPR 231530Z 27006KT 9999 FEW030 04/01 Q1028 NOSIG
