2020/12/04 05:30
LKPR 040530Z VRB02KT 9999 SCT010 OVC013 M01/M02 Q0996 R24/29//95 NOSIG
