2020/12/06 05:30
LKPR 060530Z VRB02KT CAVOK 05/03 Q1000 NOSIG
