2020/11/24 12:30
LKPR 241230Z 15004KT 100V180 4500 BR BKN003 01/01 Q1026 NOSIG
