2020/11/17 12:30
LKPR 171230Z 23013KT 9999 FEW026 BKN028 10/05 Q1027 NOSIG
