2020/11/09 03:00
LKPR 090300Z 09003KT 040V140 0800 R24/1000U FG VV002 01/01 Q1026 TEMPO 0400 FG VV001
