2020/11/30 01:00
LKPR 300100Z 23005KT 9999 FEW017 M01/M03 Q1024 NOSIG
