2020/11/26 04:30
LKPR 260430Z 22006KT 8000 BKN004 OVC005 M02/M02 Q1023 NOSIG
