2020/11/21 02:00
LKPR 210200Z 22006KT CAVOK M02/M03 Q1035 NOSIG
