2020/11/17 17:30
LKPR 171730Z 22011KT 9999 BKN040 10/06 Q1027 NOSIG
