2020/11/08 18:52
LKPR 081852Z 03005KT 0400 R24/0450N FG VV001 02/02 Q1027 RMK REG QNH 1023
