2020/11/26 17:00
LKPR 261700Z VRB02KT 4000 BR OVC002 M01/M01 Q1023 NOSIG
