2020/11/29 02:30
LKPR 290230Z 33004KT 9999 FEW023 BKN033 00/M01 Q1023 NOSIG
