2020/11/09 21:00
LKPR 092100Z 03004KT 2700 BR SCT001 OVC002 03/02 Q1028 BECMG BKN001
