2020/12/08 10:00
LKPR 081000Z 12006KT 9999 FEW011 04/01 Q1006 NOSIG
