2020/11/19 17:30
LKPR 191730Z 23009KT CAVOK 06/02 Q1021 NOSIG
