2020/11/30 18:30
LKPR 301830Z 18008KT CAVOK M01/M03 Q1021 NOSIG
