2020/11/08 20:30
LKPR 082030Z VRB02KT 0400 R24/0550N FG VV001 02/02 Q1027 NOSIG
