2020/11/19 04:30
LKPR 190430Z VRB01KT CAVOK 02/01 Q1020 NOSIG
