2020/11/15 10:18
LKPR 151018Z 14007KT 9999 OVC006 05/05 Q1019 RMK REG QNH 1014
