2020/12/07 23:00
LKPR 072300Z 12008KT 9999 FEW022 04/02 Q1003 NOSIG
