2020/12/01 12:30
LKPR 011230Z 07005KT 9999 BKN042 01/M03 Q1016 NOSIG
