2020/11/28 02:00
LKPR 280200Z VRB01KT 0600 R24/0750N FZFG VV001 M01/M01 Q1021 NOSIG
