2020/11/06 22:00
LKPR 062200Z VRB01KT CAVOK 00/M01 Q1032 NOSIG
