2020/12/03 15:00
LKPR 031500Z 19005KT 7000 FEW018 OVC022 M01/M04 Q1005 R24/29//95 NOSIG
