2020/11/20 02:00
LKPR 200200Z 30009KT CAVOK 04/01 Q1026 NOSIG
