2020/12/01 12:00
LKPR 011200Z 07005KT 040V120 9999 BKN043 01/M03 Q1016 NOSIG
