2020/11/16 18:00
LKPR 161800Z 21012KT CAVOK 08/05 Q1020 NOSIG
