2020/11/16 10:30
LKPR 161030Z 23011KT 9999 FEW015 SCT048 08/06 Q1016 NOSIG
