2020/11/08 11:30
LKPR 081130Z VRB01KT 0500 R24/0900N FG OVC002 02/02 Q1027 NOSIG
