2020/11/10 14:00
LKPR 101400Z 15004KT 090V180 9999 OVC012 05/03 Q1028 NOSIG
