2020/12/02 04:30
LKPR 020430Z 09003KT 9999 FEW021 M04/M06 Q1020 NOSIG
