2020/12/04 01:30
LKPR 040130Z 09005KT 8000 OVC009 M02/M03 Q0998 R24/29//95 NOSIG
