2020/11/15 12:30
LKPR 151230Z 14007KT 9999 OVC010 06/04 Q1018 NOSIG
