2020/12/05 10:30
LKPR 051030Z 23005KT 160V270 CAVOK 06/02 Q1002 NOSIG
