2020/11/22 03:00
LKPR 220300Z 21007KT CAVOK M01/M03 Q1028 NOSIG
