2020/11/25 09:00
LKPR 250900Z 17005KT 130V190 3300 BR FEW003 OVC004 M01/M01 Q1023 NOSIG
