2020/11/23 10:30
LKPR 231030Z 25011KT 9999 -RA FEW017 SCT021 OVC026 06/04 Q1026 BECMG TL1200 30010KT
