2020/11/14 16:30
LKPR 141630Z 08005KT 8000 NSC 07/07 Q1020 TEMPO 4000 BR
