2020/12/01 14:30
LKPR 011430Z 04004KT 9999 BKN025 01/M02 Q1017 NOSIG
