2020/11/10 23:00
LKPR 102300Z 23005KT 7000 -DZ FEW004 BKN006 OVC009 03/03 Q1029 NOSIG
