2020/11/23 07:11
LKPR 230711Z 24012KT 9000 -RA FEW016 BKN018 OVC025 05/04 Q1025 RMK REG QNH 1023
