2020/11/18 19:30
LKPR 181930Z 17004KT CAVOK 05/03 Q1024 NOSIG
