2020/11/27 03:00
LKPR 270300Z 27002KT 0800 R24/1100U FZFG VV002 M01/M02 Q1022 NOSIG
