2020/11/09 06:51
LKPR 090651Z 12003KT 0600 R24/0700D FG VV002 02/02 Q1027 RMK REG QNH 1023
