2020/11/28 01:30
LKPR 280130Z VRB02KT 0650 R24/0750N FZFG VV002 M01/M01 Q1021 NOSIG
