2020/11/09 20:00
LKPR 092000Z 35003KT 3000 BR FEW001 BKN002 OVC009 03/02 Q1028 BECMG 2000 BR
