2020/12/03 02:00
LKPR 030200Z 13004KT 9000 OVC015 M03/M04 Q1011 NOSIG
