2020/11/23 19:00
LKPR 231900Z 22008KT CAVOK 01/M00 Q1029 NOSIG
