2020/11/15 04:30
LKPR 150430Z 10003KT 060V120 3000 0800NW R24/0700U BR BCFG BKN003 03/02 Q1019 TEMPO 0700 FG BKN002
