2020/12/04 21:30
LKPR 042130Z 10004KT CAVOK M00/M02 Q0996 NOSIG
