2020/11/10 04:30
LKPR 100430Z 34004KT 0600 R24/0900N FG VV002 02/02 Q1027 NOSIG
