2020/11/12 04:44
LKPR 120444Z 13003KT 6000 BKN002 BKN004 OVC018 03/03 Q1022 RMK REG QNH 1018
