2020/12/05 05:00
LKPR 050500Z 07003KT CAVOK 01/M00 Q0995 NOSIG
