2020/11/29 09:30
LKPR 290930Z 36009KT 9999 BKN012 01/M01 Q1024 NOSIG
