2020/12/05 13:30
LKPR 051330Z 10005KT 070V140 CAVOK 08/03 Q1002 NOSIG
