2020/11/30 14:30
LKPR 301430Z 22003KT 9999 FEW032 01/M03 Q1023 NOSIG
