2020/11/10 10:42
LKPR 101042Z VRB01KT 6000 FEW003 SCT006 OVC010 04/04 Q1028 RMK REG QNH 1025
