2020/11/26 09:30
LKPR 260930Z 19004KT 150V220 4500 BR OVC004 M02/M02 Q1024 NOSIG
