2020/11/14 01:30
LKPR 140130Z 21003KT CAVOK 08/06 Q1021 NOSIG
