2020/11/12 02:06
LKPR 120206Z 15003KT 120V190 8000 -DZ FEW006 BKN010 OVC013 03/02 Q1024 RMK REG QNH 1019
