2020/11/10 01:00
LKPR 100100Z 36003KT 1500 BR SCT001 OVC002 03/03 Q1028 NOSIG
