2020/11/07 02:09
LKPR 070209Z VRB01KT 0500 R24/0700D FZFG BKN001 M02/M03 Q1031 RMK REG QNH 1028
