2020/12/01 11:30
LKPR 011130Z 12005KT 9999 BKN043 00/M03 Q1016 NOSIG
