2020/11/29 11:30
LKPR 291130Z 34008KT 310V020 9999 SCT015 03/M01 Q1023 NOSIG
