2020/12/07 02:30
LKPR 070230Z 15019G31KT CAVOK 08/04 Q0997 NOSIG
