2020/11/14 20:00
LKPR 142000Z VRB02KT 0400 R24/0600U PRFG VV001 04/04 Q1020 TEMPO 0700 FG BKN002
