2020/12/06 20:48
LKPR 062048Z 13020G32KT 9999 FEW022 08/04 Q0999 RMK REG QNH 0996
