2020/11/24 08:43
LKPR 240843Z 15005KT 0300 R24/0400D FZFG VV001 M03/M03 Q1028 RMK REG QNH 1024
