2020/11/20 03:30
LKPR 200330Z 30007KT 9999 FEW030 02/M01 Q1027 NOSIG
