2020/11/25 20:30
LKPR 252030Z 18005KT 150V230 9999 OVC007 M01/M02 Q1023 NOSIG
