2020/11/22 13:00
LKPR 221300Z 23012KT CAVOK 06/M02 Q1025 NOSIG
