2020/11/27 23:00
LKPR 272300Z 22004KT 0600 R24/0800N FZFG VV002 M01/M01 Q1021 NOSIG
