2020/11/19 19:30
LKPR 191930Z 24015KT CAVOK 06/02 Q1022 NOSIG
