2020/12/04 06:00
LKPR 040600Z 05003KT 040V110 9999 SCT011 OVC013 M01/M02 Q0995 R24/29//95 NOSIG
