2020/12/01 23:00
LKPR 012300Z 11003KT 080V160 9999 OVC016 M01/M03 Q1021 NOSIG
