2020/11/26 09:00
LKPR 260900Z 21004KT 4700 BR OVC004 M02/M02 Q1024 NOSIG
