2020/11/11 21:00
LKPR 112100Z 18003KT 130V220 9999 OVC015 04/02 Q1025 NOSIG
