2020/11/26 00:30
LKPR 260030Z 18004KT 150V220 9000 OVC005 M01/M02 Q1023 NOSIG
