2020/12/03 21:30
LKPR 032130Z 11005KT 9000 SCT010 M03/M05 Q1001 R24/29//95 BECMG BKN007
