2020/11/11 12:30
LKPR 111230Z 23003KT 9999 OVC014 05/02 Q1027 NOSIG
