2020/12/02 17:30
LKPR 021730Z 09007KT CAVOK M03/M05 Q1014 NOSIG
