2020/11/28 11:22
LKPR 281122Z VRB02KT 0900 R24/0900U FZFG BKN002 OVC003 M00/M00 Q1022 RMK REG QNH 1018
