2020/11/22 15:30
LKPR 221530Z 21013KT 9999 BKN021 06/00 Q1025 NOSIG
