2020/11/14 22:30
LKPR 142230Z VRB02KT 0350 R24/0450D FG VV001 03/03 Q1020 NOSIG
