2020/12/06 04:30
LKPR 060430Z 12005KT CAVOK 05/03 Q1000 NOSIG
