2020/11/15 06:30
LKPR 150630Z 16006KT 4000 BR BKN002 OVC003 04/04 Q1019 BECMG 7000 BKN003
