2020/11/16 08:30
LKPR 160830Z 21010KT 9999 SCT029 SCT040 06/05 Q1015 NOSIG
