2020/11/28 12:30
LKPR 281230Z VRB02KT 9000 FEW004 SCT006 OVC007 M00/M00 Q1022 NOSIG
