2020/11/19 12:30
LKPR 191230Z 24013KT 9999 -RA BKN022 10/06 Q1018 TEMPO 27015G30KT BKN018
