2020/11/18 02:30
LKPR 180230Z 22008KT 9999 BKN046 05/03 Q1028 NOSIG
