2020/12/05 02:00
LKPR 050200Z 11005KT CAVOK 01/M01 Q0996 NOSIG
