2020/11/19 21:05
LKPR 192105Z 25013KT 9999 -SHRA SCT033 05/03 Q1023 RMK REG QNH 1021
