2020/11/30 12:00
LKPR 301200Z 24007KT 9999 FEW024 02/M04 Q1024 NOSIG
