2020/11/28 08:30
LKPR 280830Z 34004KT 0900 R24/0600D FZFG VV002 M01/M01 Q1022 NOSIG
