2020/11/12 21:00
LKPR 122100Z 19007KT 150V210 9999 FEW016 BKN022 OVC030 07/06 Q1022 NOSIG
