2020/12/02 02:00
LKPR 020200Z 09003KT 070V130 9999 BKN020 M02/M04 Q1020 NOSIG
