2020/11/16 21:30
LKPR 162130Z 22010KT 9999 FEW043 07/05 Q1022 NOSIG
