2020/11/29 06:30
LKPR 290630Z 27003KT 220V320 9999 SCT034 M01/M02 Q1023 NOSIG
