2020/11/13 20:00
LKPR 132000Z 23004KT CAVOK 07/06 Q1021 NOSIG
