2020/11/19 07:00
LKPR 190700Z 18008KT CAVOK 04/03 Q1019 NOSIG
