2020/11/18 16:30
LKPR 181630Z 15005KT CAVOK 08/05 Q1025 NOSIG
