2020/12/03 12:35
LKPR 031235Z 19006KT 5000 BR BKN010 OVC014 M02/M04 Q1006 R24/29//95 RMK REG QNH 1001
