2020/11/12 04:00
LKPR 120400Z 15003KT 5000 -DZ BR BKN003 BKN007 OVC017 03/03 Q1023 TEMPO 2500 BR
