2020/11/21 06:30
LKPR 210630Z 21006KT CAVOK M03/M03 Q1035 NOSIG
