2020/11/28 09:39
LKPR 280939Z 01004KT 0600 R24/1500U FZFG BKN002 OVC003 M00/M01 Q1022 RMK REG QNH 1018
