2020/11/07 12:30
LKPR 071230Z 02003KT 350V050 0200 R24/0350N FG VV001 03/03 Q1028 NOSIG
