2020/12/03 18:00
LKPR 031800Z 12006KT 9999 SCT028 M03/M05 Q1004 R24/29//95 NOSIG
