2020/11/21 16:00
LKPR 211600Z 16004KT CAVOK 01/M02 Q1031 NOSIG
