2020/12/04 04:30
LKPR 040430Z 08003KT 040V120 9000 OVC010 M01/M02 Q0996 R24/29//95 NOSIG
