2020/11/20 06:30
LKPR 200630Z 29006KT CAVOK 01/M01 Q1028 NOSIG
