2020/11/12 05:23
LKPR 120523Z 17003KT 6000 SCT002 BKN003 OVC014 03/03 Q1022 RMK REG QNH 1018
