2020/12/03 01:30
LKPR 030130Z 13004KT 9000 OVC015 M03/M04 Q1012 BECMG OVC012
