2020/11/21 01:00
LKPR 210100Z 22005KT CAVOK M01/M02 Q1035 NOSIG
