2020/11/23 17:00
LKPR 231700Z 25006KT CAVOK 03/00 Q1028 NOSIG
