2020/11/26 06:30
LKPR 260630Z 23006KT 5000 BR SCT004 OVC005 M02/M03 Q1023 BECMG 2000 BR BKN003
