2020/12/06 01:00
LKPR 060100Z 03004KT CAVOK 06/03 Q1001 NOSIG
