2020/11/10 18:08
LKPR 101808Z 19005KT 9999 OVC006 03/02 Q1029 RMK REG QNH 1025
