2020/11/20 03:00
LKPR 200300Z 31010KT CAVOK 02/M00 Q1027 NOSIG
