2020/12/05 15:30
LKPR 051530Z 07004KT CAVOK 05/03 Q1003 NOSIG
