2020/11/13 05:13
LKPR 130513Z 23006KT 6000 SCT003 05/05 Q1022 RMK REG QNH 1018
