2020/11/28 06:47
LKPR 280647Z 36004KT 0500 R24/0900N -FZDZ FZFG VV002 M01/M01 Q1021 RMK REG QNH 1018
