2020/11/30 20:00
LKPR 302000Z 19006KT CAVOK M02/M04 Q1021 NOSIG
