2020/11/29 07:00
LKPR 290700Z VRB02KT 9999 BKN035 M01/M02 Q1023 NOSIG
