2020/11/09 05:30
LKPR 090530Z 12003KT 090V160 1200 R24/1100N BR OVC002 02/02 Q1026 TEMPO 0700 FG VV001
