2020/11/19 12:00
LKPR 191200Z 23014KT 9999 SCT025 BKN032 10/06 Q1018 TEMPO 27015G30KT BKN018
