2020/11/14 01:00
LKPR 140100Z 19007KT CAVOK 09/06 Q1021 NOSIG
