2020/11/18 22:30
LKPR 182230Z 16008KT CAVOK 06/04 Q1023 NOSIG
