2020/11/10 10:00
LKPR 101000Z 00000KT 2700 BR SCT002 OVC009 04/04 Q1029 BECMG 3500 BR
