2020/11/27 04:36
LKPR 270436Z 19004KT 160V220 0500 R24/0650D FZFG VV002 M01/M01 Q1022 RMK REG QNH 1017
