2020/12/05 12:00
LKPR 051200Z 12006KT CAVOK 08/03 Q1002 NOSIG
