2020/11/09 10:00
LKPR 091000Z 09004KT 4000 BR OVC003 02/02 Q1028 NOSIG
