2020/11/21 02:30
LKPR 210230Z 21008KT CAVOK M02/M03 Q1035 NOSIG
