2020/12/04 17:00
LKPR 041700Z 09009KT CAVOK 01/M02 Q0996 NOSIG
