2020/12/05 08:53
LKPR 050853Z VRB02KT CAVOK 06/02 Q1000 RMK REG QNH 0993
