2020/11/28 13:00
LKPR 281300Z VRB02KT 9000 FEW004 OVC005 M00/M00 Q1022 NOSIG
