2020/11/16 11:00
LKPR 161100Z 24014KT 9999 FEW018 SCT039 09/06 Q1016 NOSIG
