2020/11/13 07:12
LKPR 130712Z 23003KT 3000 BR FEW003 SCT004 BKN014 05/05 Q1022 RMK REG QNH 1020
