2020/11/16 14:30
LKPR 161430Z 24012KT 9999 FEW030 09/05 Q1018 NOSIG
