2020/11/23 14:00
LKPR 231400Z 29009KT 9999 SCT027 SCT040 07/02 Q1027 NOSIG
