2020/11/24 07:09
LKPR 240709Z 18006KT 0600 R24/P2000N FZFG SCT001 M03/M03 Q1029 RMK REG QNH 1024
