2020/11/09 03:30
LKPR 090330Z VRB02KT 1000 R24/1400U BR VV002 01/01 Q1026 TEMPO 0400 FG VV001
