2020/12/01 01:30
LKPR 010130Z 18004KT CAVOK M03/M04 Q1018 NOSIG
