2020/11/13 04:41
LKPR 130441Z 24005KT 5000 BR BKN004 04/04 Q1022 RMK REG QNH 1018
