2020/11/27 20:43
LKPR 272043Z VRB01KT 0900 R24/1300U FZFG VV002 M00/M00 Q1022 RMK REG QNH 1018
