2020/11/23 22:00
LKPR 232200Z 23005KT CAVOK 01/M00 Q1030 NOSIG
