2020/12/05 21:00
LKPR 052100Z VRB02KT CAVOK 03/02 Q1001 NOSIG
