2020/11/10 09:00
LKPR 100900Z VRB01KT 1700 BR FEW001 BKN002 OVC009 03/03 Q1028 NOSIG
