2020/12/03 11:00
LKPR 031100Z 16006KT 6000 BKN010 OVC014 M01/M03 Q1007 R24/620195 NOSIG
