2020/11/12 11:42
LKPR 121142Z 17003KT 8000 SCT007 BKN010 05/04 Q1022 RMK REG QNH 1019
