2020/11/15 15:00
LKPR 151500Z 17004KT 120V190 9999 BKN017 06/04 Q1016 NOSIG
