2020/11/14 15:00
LKPR 141500Z 06003KT CAVOK 11/09 Q1021 NOSIG
