2020/11/24 12:00
LKPR 241200Z 12003KT 090V180 4000 BR BKN003 01/00 Q1027 BECMG 5000 BR
