2020/12/06 10:00
LKPR 061000Z 10005KT CAVOK 10/05 Q1000 NOSIG
