2020/11/19 11:30
LKPR 191130Z 23012KT 9999 BKN022 10/06 Q1018 TEMPO 27015G30KT BKN018
