2020/11/09 10:30
LKPR 091030Z 13003KT 4500 BR OVC003 03/03 Q1027 NOSIG
