2020/11/21 10:00
LKPR 211000Z 22007KT CAVOK 01/M01 Q1035 NOSIG
