2020/11/14 22:08
LKPR 142208Z VRB02KT 0300 R24/0600U FG VV001 03/03 Q1020 RMK REG QNH 1017
