2020/12/04 22:00
LKPR 042200Z 13008KT CAVOK M00/M02 Q0996 NOSIG
