2020/12/04 10:30
LKPR 041030Z 13007KT 090V150 9999 BKN017 02/M01 Q0996 NOSIG
