2020/12/03 07:30
LKPR 030730Z 12004KT 3500 -SN BR SCT005 BKN007 OVC045 M02/M03 Q1009 R24/650295 R30///99// NOSIG
