2020/11/10 12:30
LKPR 101230Z 14004KT 9999 FEW005 OVC009 05/03 Q1028 NOSIG
