2020/11/14 04:00
LKPR 140400Z 21003KT 180V240 9999 FEW020 OVC030 09/06 Q1021 NOSIG
