2020/12/04 20:30
LKPR 042030Z 11008KT CAVOK M02/M03 Q0996 NOSIG
