2020/12/04 23:00
LKPR 042300Z 12008KT CAVOK 01/M01 Q0995 NOSIG
