2020/11/23 18:30
LKPR 231830Z 26008KT CAVOK 02/M00 Q1029 NOSIG
