2020/11/19 08:00
LKPR 190800Z 18005KT CAVOK 05/03 Q1019 NOSIG
