2020/11/15 07:00
LKPR 150700Z 17005KT 5000 BR OVC003 04/04 Q1020 NOSIG
