2020/11/26 11:00
LKPR 261100Z 19004KT 150V230 4600 BR OVC004 M01/M02 Q1023 NOSIG
