2020/12/05 08:00
LKPR 050800Z 12004KT CAVOK 05/01 Q0998 NOSIG
