2020/11/11 04:00
LKPR 110400Z 22004KT 9999 FEW005 BKN009 OVC012 04/03 Q1028 NOSIG
