2020/11/25 06:30
LKPR 250630Z 17003KT 3500 BR BKN002 OVC003 M01/M01 Q1022 TEMPO 1200 BR BKN001
