2020/11/09 12:00
LKPR 091200Z 12005KT 4500 BR BKN003 OVC005 03/03 Q1027 NOSIG
