2020/11/26 18:00
LKPR 261800Z 22005KT 4000 BR OVC002 M01/M01 Q1023 NOSIG
