2020/11/07 23:00
LKPR 072300Z 22006KT 0400 R24/0600D FG VV002 02/01 Q1026 NOSIG
