2020/11/09 04:00
LKPR 090400Z VRB02KT 1300 R24/1600N BR OVC002 01/01 Q1026 TEMPO 0400 FG VV001
