2020/11/09 07:00
LKPR 090700Z 11004KT 0600 R24/0600N FG VV002 02/02 Q1027 TEMPO 0500 FG
