2020/11/14 14:30
LKPR 141430Z 01003KT 350V050 CAVOK 13/09 Q1021 NOSIG
