2020/11/13 08:30
LKPR 130830Z 00000KT 4100 BR FEW003 SCT004 BKN011 06/05 Q1022 TEMPO BKN004
