2020/11/24 15:00
LKPR 241500Z 10003KT 1500 0700SW R24/P2000N BR BCFG SCT001 OVC002 01/00 Q1025 BECMG 1200 BR
