2020/12/01 02:30
LKPR 010230Z 18004KT CAVOK M03/M04 Q1017 NOSIG
