2020/11/08 20:00
LKPR 082000Z 08004KT 010V120 0400 R24/0550U FG VV001 02/02 Q1027 NOSIG
