2020/11/19 01:00
LKPR 190100Z 18007KT CAVOK 05/03 Q1021 NOSIG
