2020/11/08 00:30
LKPR 080030Z 27004KT 0400 R24/0600N FG VV002 01/01 Q1026 NOSIG
