2020/12/07 06:30
LKPR 070630Z 16012G22KT 9999 BKN016 07/04 Q0999 NOSIG
