2020/11/14 14:00
LKPR 141400Z VRB02KT CAVOK 14/09 Q1021 NOSIG
