2020/11/21 17:00
LKPR 211700Z 19005KT CAVOK 01/M03 Q1031 NOSIG
