2020/11/08 09:48
LKPR 080948Z 18003KT 150V220 0400 R24/0900U FG VV002 01/01 Q1027 RMK REG QNH 1023
