2020/11/09 09:00
LKPR 090900Z 11004KT 2600 BR OVC002 02/02 Q1027 BECMG 3500 BR OVC003
