2020/12/05 02:30
LKPR 050230Z 06006KT CAVOK 01/M01 Q0995 NOSIG
