2020/11/11 05:30
LKPR 110530Z 23005KT 9999 OVC012 04/03 Q1028 NOSIG
