2020/11/26 22:00
LKPR 262200Z 19004KT 0600 R24/0800N FZFG VV002 M01/M01 Q1023 NOSIG
