2020/12/02 15:30
LKPR 021530Z 10007KT 9999 FEW023 M03/M06 Q1015 NOSIG
