2020/11/15 14:00
LKPR 151400Z 16004KT 120V200 9999 SCT013 BKN016 07/04 Q1017 NOSIG
