2020/11/28 08:00
LKPR 280800Z 33003KT 300V360 0400 R24/0600N -FZDZ FZFG VV002 M01/M01 Q1022 NOSIG
