2020/11/19 22:23
LKPR 192223Z 29012KT 9999 -SHRA FEW010 BKN025 05/03 Q1024 RMK REG QNH 1021
