2020/12/05 03:30
LKPR 050330Z 04006KT CAVOK 01/M01 Q0995 NOSIG
