2020/11/07 00:36
LKPR 070036Z 10004KT 4500 0900SE R24/1400U BR BCFG FEW001 M01/M02 Q1032 RMK REG QNH 1028
