2020/11/14 19:00
LKPR 141900Z 04002KT 0500 R24/0400D PRFG FEW002 07/07 Q1021 NOSIG
