2020/11/27 03:48
LKPR 270348Z 21004KT 160V230 0600 R24/0750D FZFG VV002 M01/M01 Q1022 RMK REG QNH 1017
