2020/11/23 02:30
LKPR 230230Z 22008KT 9999 FEW022 SCT048 04/03 Q1024 NOSIG
