2020/11/21 23:30
LKPR 212330Z 18006KT CAVOK M01/M03 Q1029 NOSIG
