2020/11/07 13:30
LKPR 071330Z VRB02KT 0200 R24/0350N FG VV002 03/03 Q1028 NOSIG
