2020/11/28 09:50
LKPR 280950Z 04005KT 2500 BR BKN002 OVC003 M00/M01 Q1023 RMK REG QNH 1018
