2020/11/07 08:30
LKPR 070830Z 06002KT 0200 R24/0275N FG VV001 01/01 Q1031 NOSIG
