2020/11/08 17:00
LKPR 081700Z VRB02KT 1300 R24/1900N BR OVC001 02/02 Q1027 BECMG 0500 FG
