2020/11/26 13:47
LKPR 261347Z 21004KT 4500 BR OVC004 M01/M01 Q1023 RMK REG QNH 1019
