2020/11/08 23:30
LKPR 082330Z 08003KT 030V120 0550 FG VV002 02/01 Q1027 NOSIG
