2020/12/06 21:00
LKPR 062100Z 13020G30KT 9999 FEW022 08/04 Q0998 NOSIG
