2020/11/18 15:00
LKPR 181500Z 15004KT CAVOK 11/05 Q1026 NOSIG
