2020/11/10 18:30
LKPR 101830Z 18005KT 9999 OVC006 03/02 Q1029 BECMG BKN004
