2020/11/30 04:30
LKPR 300430Z 23005KT 9999 FEW023 M02/M03 Q1025 NOSIG
