2020/11/24 23:00
LKPR 242300Z 13003KT 090V180 2400 BR OVC002 M00/M00 Q1024 NOSIG
