2020/11/24 02:00
LKPR 240200Z 21007KT CAVOK M01/M02 Q1029 NOSIG
