2020/11/27 14:38
LKPR 271438Z 25003KT 150V300 2600 BR SCT002 OVC003 M00/M00 Q1021 RMK REG QNH 1018
