2020/12/08 09:00
LKPR 080900Z 11004KT CAVOK 03/02 Q1005 NOSIG
