2020/12/05 07:30
LKPR 050730Z 15005KT CAVOK 05/01 Q0998 NOSIG
