2020/11/21 18:30
LKPR 211830Z 18007KT CAVOK M00/M02 Q1031 NOSIG
