2020/11/25 14:30
LKPR 251430Z 18004KT 6000 OVC008 M00/M01 Q1023 NOSIG
