2020/11/07 22:30
LKPR 072230Z 21005KT 170V240 0500 R24/0700N FG VV002 02/02 Q1026 NOSIG
