2020/11/28 03:30
LKPR 280330Z 01003KT 0550 R24/0700D FZFG VV001 M01/M01 Q1021 NOSIG
