2020/12/06 17:30
LKPR 061730Z 13019G31KT CAVOK 08/04 Q0999 NOSIG
