2020/11/26 18:30
LKPR 261830Z 21004KT 4000 BR OVC002 M01/M01 Q1023 NOSIG
