2020/12/03 11:24
LKPR 031124Z 16007KT 6000 BKN010 OVC020 M01/M03 Q1007 R24/29//95 RMK REG QNH 1002
