2020/11/14 23:00
LKPR 142300Z VRB01KT 0250 R24/0325N FG VV001 04/03 Q1020 NOSIG
