2020/11/09 19:42
LKPR 091942Z 36003KT 3400 BR FEW001 BKN002 OVC007 03/02 Q1028 RMK REG QNH 1024
