2020/12/01 05:00
LKPR 010500Z 16005KT CAVOK M02/M03 Q1016 TEMPO -SN
