2020/12/08 08:30
LKPR 080830Z 10005KT CAVOK 01/01 Q1005 NOSIG
