2020/11/20 08:30
LKPR 200830Z 25006KT 220V280 CAVOK 03/M00 Q1029 NOSIG
