2020/12/04 15:30
LKPR 041530Z 10007KT 080V140 CAVOK 01/M02 Q0995 NOSIG
