2020/11/28 01:00
LKPR 280100Z VRB01KT 0700 R24/0800N FZFG VV002 M01/M01 Q1021 NOSIG
