2020/11/30 05:00
LKPR 300500Z 23005KT 9999 FEW024 BKN049 M02/M03 Q1025 NOSIG
