2020/12/07 07:30
LKPR 070730Z 17021KT 9999 SCT015 07/04 Q1000 NOSIG
