2020/11/09 14:06
LKPR 091406Z 15003KT 3200 BR BKN002 OVC003 02/02 Q1027 RMK REG QNH 1023
