2020/11/14 02:00
LKPR 140200Z 22005KT CAVOK 08/06 Q1021 NOSIG
