2020/11/15 10:30
LKPR 151030Z 14007KT 9999 OVC007 05/05 Q1020 NOSIG
