2020/11/07 01:30
LKPR 070130Z VRB02KT 0600 R24/1200U FZFG SCT001 M01/M02 Q1032 NOSIG
