2020/11/10 22:53
LKPR 102253Z 23004KT 8000 -DZ FEW004 BKN006 OVC009 03/03 Q1029 RMK REG QNH 1025
