2020/12/03 04:30
LKPR 030430Z 14004KT 4000 SN BR OVC020 M02/M03 Q1010 R24/490195 R30///99// TEMPO 2500 SN BR BKN012
