2020/11/30 12:30
LKPR 301230Z 26005KT 9999 FEW032 02/M03 Q1024 NOSIG
