2020/11/29 17:30
LKPR 291730Z 36005KT 9999 BKN016 00/M01 Q1023 TEMPO 1400 BR
