2020/11/09 01:00
LKPR 090100Z VRB02KT 0400 R24/0550N FG VV002 02/01 Q1027 NOSIG
