2020/11/07 01:00
LKPR 070100Z 09004KT 0800 R24/0700D PRFG SCT001 M01/M01 Q1032 NOSIG
