2020/11/10 22:00
LKPR 102200Z 18004KT 120V200 9999 SCT005 OVC008 04/03 Q1029 NOSIG
