2020/11/21 22:00
LKPR 212200Z 18007KT CAVOK M00/M03 Q1030 NOSIG
