2020/11/07 22:16
LKPR 072216Z 19004KT 0500 R24/0700D FG VV002 02/02 Q1026 RMK REG QNH 1022
