2020/11/27 06:30
LKPR 270630Z 23005KT 0550 R24/0700N FZFG VV002 M01/M02 Q1022 NOSIG
