2020/11/27 09:00
LKPR 270900Z 23004KT 0250 R24/0500D FZFG OVC002 M01/M02 Q1023 BECMG 0450 FZFG
