2020/12/02 21:00
LKPR 022100Z 09005KT 9000 BKN026 M03/M05 Q1013 NOSIG
