2020/12/07 14:30
LKPR 071430Z 28002KT 9999 SCT014 BKN032 04/02 Q1003 NOSIG
