2020/11/26 11:30
LKPR 261130Z 20005KT 4600 BR OVC004 M01/M02 Q1023 NOSIG
