2020/11/11 02:00
LKPR 110200Z 18003KT 150V220 9000 FEW003 SCT005 OVC008 04/03 Q1028 NOSIG
