2020/11/25 21:00
LKPR 252100Z 16004KT 120V190 9999 OVC007 M01/M02 Q1023 NOSIG
