2020/11/21 15:00
LKPR 211500Z 20004KT CAVOK 02/M01 Q1032 NOSIG
