2020/11/18 13:00
LKPR 181300Z 16005KT 130V190 CAVOK 13/05 Q1026 NOSIG
