2020/11/09 15:30
LKPR 091530Z 10004KT 4400 BR OVC003 02/02 Q1027 NOSIG
