2020/12/03 03:50
LKPR 030350Z 14003KT 9000 -SN OVC015 M02/M04 Q1011 RMK REG QNH 1006
