2020/11/17 03:30
LKPR 170330Z 22009KT 9999 BKN038 BKN043 07/06 Q1024 NOSIG
