2020/12/07 01:30
LKPR 070130Z 15019G29KT 9999 FEW022 08/04 Q0997 NOSIG
