2020/11/11 16:30
LKPR 111630Z 15004KT 9999 OVC017 05/02 Q1026 NOSIG
