2020/11/15 03:41
LKPR 150341Z 08003KT 040V120 3000 0800NW R24/0450D BR BCFG BKN001 02/02 Q1019 RMK REG QNH 1016
