2020/11/12 22:00
LKPR 122200Z 20009KT 170V230 9999 FEW019 BKN024 OVC032 07/06 Q1022 NOSIG
