2020/11/07 21:00
LKPR 072100Z 18004KT 150V210 0500 R24/0800N FG VV002 02/02 Q1027 NOSIG
