2020/11/14 13:30
LKPR 141330Z 26003KT 210V340 CAVOK 14/09 Q1020 NOSIG
