2020/12/07 13:00
LKPR 071300Z 26005KT 9999 OVC014 04/02 Q1003 NOSIG
