2020/11/21 03:00
LKPR 210300Z 22007KT CAVOK M02/M03 Q1035 NOSIG
