2020/11/14 18:00
LKPR 141800Z VRB02KT 6000 NSC 07/07 Q1020 TEMPO 3500 BR
