2020/11/30 23:00
LKPR 302300Z 16005KT CAVOK M03/M05 Q1019 NOSIG
