2020/11/29 13:30
LKPR 291330Z 32009KT 9999 SCT016 BKN035 03/M00 Q1023 NOSIG
