2020/11/26 12:30
LKPR 261230Z 23004KT 200V280 5000 BR OVC005 M01/M02 Q1023 NOSIG
