2020/11/27 23:30
LKPR 272330Z 28003KT 250V310 0600 R24/0800D FZFG VV002 M01/M01 Q1021 NOSIG
